{"type":"FeatureCollection","features":[{"type":"Feature","properties":{},"geometry":{"type":"MultiLineString","coordinates":[[[35.77595,33.33503],[35.77332,33.33582],[35.77031,33.33369],[35.76875,33.33258],[35.76793,33.33199],[35.76674,33.33091],[35.76575,33.33003],[35.76356,33.32903],[35.76091,33.32888],[35.75908,33.32821],[35.7581,33.32747],[35.75663,33.32753],[35.75581,33.3277],[35.75094,33.32833],[35.74973,33.3278],[35.74751,33.32683],[35.74652,33.32626],[35.74521,33.32538],[35.7442,33.32468],[35.74241,33.32492],[35.73945,33.3261],[35.73352,33.32841],[35.72953,33.33026],[35.72727,33.33061],[35.72399,33.33066],[35.72085,33.32938],[35.71923,33.32832],[35.71802,33.32755],[35.71592,33.32616],[35.71462,33.32527],[35.71388,33.32501],[35.7134,33.32304],[35.71241,33.31902],[35.71215,33.31639],[35.71417,33.3115],[35.71041,33.30423],[35.70451,33.30222],[35.70241,33.30028],[35.69953,33.29908],[35.69799,33.29873],[35.69684,33.29784]],[[35.69633,33.29745],[35.69661,33.29763],[35.69684,33.29784],[35.69633,33.29745]],[[35.69608,33.29727],[35.69633,33.29745],[35.69633,33.29745],[35.69608,33.29727]],[[35.69608,33.29727],[35.696,33.29725]],[[35.69012,33.29701],[35.69158,33.29699],[35.69566,33.29719],[35.69564,33.29719],[35.69584,33.29722],[35.69564,33.29719],[35.69564,33.29719],[35.69558,33.29717],[35.69564,33.29719],[35.69559,33.29717],[35.696,33.29725],[35.696,33.29725],[35.69584,33.29722]],[[35.69193,33.29699],[35.69348,33.29688],[35.69434,33.2969],[35.69558,33.29717]],[[35.68625,33.29473],[35.68157,33.29108],[35.68159,33.2911],[35.68623,33.29476],[35.68648,33.29507],[35.68652,33.2951],[35.68625,33.29473],[35.68652,33.2951],[35.68652,33.2951],[35.68676,33.29542],[35.68652,33.2951],[35.68791,33.29603],[35.68908,33.29669],[35.68976,33.29686],[35.69018,33.29695],[35.69089,33.29696],[35.69158,33.29699],[35.69193,33.29699],[35.69158,33.29699],[35.69158,33.29699],[35.69012,33.29701],[35.68912,33.29673],[35.68676,33.29542]],[[35.67924,33.28866],[35.67929,33.28873],[35.67968,33.28919],[35.68018,33.28946],[35.68029,33.2896],[35.68058,33.28992],[35.68157,33.29108],[35.68149,33.29102],[35.68015,33.28949],[35.67955,33.28914],[35.67924,33.28866]],[[35.67924,33.28866],[35.67842,33.28816]],[[35.67796,33.28788],[35.67842,33.28816],[35.67796,33.28788],[35.67796,33.28788]],[[35.66768,33.28123],[35.67042,33.28389],[35.67119,33.28421],[35.67275,33.28492],[35.67432,33.28563],[35.67547,33.28633],[35.67661,33.28703],[35.6777,33.28771],[35.67796,33.28788],[35.67424,33.28563],[35.67042,33.28389],[35.66768,33.28123]],[[35.66635,33.28064],[35.66672,33.28079],[35.66724,33.28098],[35.66742,33.28109],[35.66768,33.28123],[35.66726,33.28101],[35.66662,33.28078],[35.66635,33.28064]],[[35.6621,33.27676],[35.66635,33.28064],[35.66436,33.2796],[35.6621,33.27676]],[[35.66076,33.27554],[35.66082,33.27559],[35.6609,33.27566],[35.66103,33.27578],[35.66076,33.27554]],[[35.66044,33.27525],[35.66076,33.27554],[35.66057,33.27537],[35.66054,33.27535],[35.66044,33.27525]],[[35.10367,33.09418],[35.10448,33.09436],[35.10672,33.09448],[35.10792,33.0944],[35.1098,33.09411],[35.11165,33.09372],[35.11488,33.09287],[35.11581,33.09266],[35.11767,33.09253],[35.11972,33.09261],[35.12412,33.09263],[35.126,33.09268],[35.12837,33.0924],[35.13257,33.09161],[35.13414,33.09137],[35.13542,33.09129],[35.13869,33.09187],[35.13946,33.092],[35.14114,33.09211],[35.14402,33.09198],[35.14481,33.09198],[35.14704,33.09155],[35.14806,33.09124],[35.15065,33.09085],[35.15189,33.09137],[35.15412,33.0915],[35.1562,33.09155],[35.15611,33.09048],[35.15589,33.08692],[35.15693,33.08668],[35.15803,33.08694],[35.15931,33.0879],[35.16066,33.08831],[35.16298,33.08859],[35.16404,33.08874],[35.16526,33.08903],[35.16718,33.09007],[35.16917,33.09065],[35.17025,33.09115],[35.17081,33.09185],[35.1714,33.09255],[35.17253,33.09316],[35.17397,33.09342],[35.17653,33.09363],[35.17846,33.09335],[35.17967,33.093],[35.1848,33.09053],[35.18535,33.09007],[35.18661,33.08972],[35.18699,33.08963],[35.18973,33.08952],[35.19048,33.08896],[35.19088,33.08811],[35.19103,33.08772],[35.19329,33.08537],[35.19415,33.08565],[35.19499,33.08598],[35.19603,33.08611],[35.1966,33.08611],[35.19994,33.08759],[35.20211,33.088],[35.20673,33.0884],[35.20737,33.08911],[35.20821,33.09118],[35.20748,33.09244],[35.20748,33.09439],[35.20786,33.09511],[35.20814,33.0959],[35.20894,33.09711],[35.20987,33.09852],[35.21082,33.09937],[35.21254,33.10011],[35.21431,33.10007],[35.21577,33.10005],[35.21714,33.09998],[35.22507,33.099],[35.22715,33.09835],[35.22885,33.09628],[35.23065,33.09455],[35.23144,33.094],[35.23224,33.09359],[35.23374,33.09318],[35.23659,33.09257],[35.2377,33.09231],[35.24064,33.09296],[35.2421,33.09342],[35.24612,33.09494],[35.24851,33.0955],[35.24977,33.09559],[35.25777,33.09681],[35.26186,33.0974],[35.27037,33.10016],[35.2724,33.10057],[35.27729,33.10089],[35.27804,33.1009],[35.28144,33.10133],[35.2823,33.1017],[35.28465,33.10342],[35.28558,33.104],[35.28785,33.10583],[35.28869,33.10633],[35.29218,33.10768],[35.2936,33.10766],[35.29486,33.10735],[35.29875,33.10487],[35.30023,33.10289],[35.30063,33.10096],[35.30242,33.10039],[35.30551,33.10068],[35.30801,33.10063],[35.31062,33.10144],[35.31559,33.10435],[35.31756,33.10398],[35.31922,33.10209],[35.32176,33.09916],[35.32377,33.09683],[35.3245,33.09579],[35.32196,33.08948],[35.32119,33.08816],[35.32501,33.08276],[35.32649,33.08146],[35.32713,33.08098],[35.33352,33.07633],[35.33447,33.07575],[35.3383,33.0691],[35.34426,33.06479],[35.34619,33.06184],[35.34933,33.05942],[35.35417,33.05753],[35.35633,33.05766],[35.35768,33.05762],[35.36002,33.05649],[35.36228,33.05629],[35.37749,33.05478],[35.38071,33.05934],[35.38107,33.05956],[35.38226,33.0616],[35.38522,33.06158],[35.39022,33.06116],[35.3936,33.0611],[35.39594,33.06094],[35.39683,33.06099],[35.4007,33.06179],[35.40251,33.06221],[35.40541,33.06257],[35.4106,33.06318],[35.41323,33.06366],[35.41876,33.06431],[35.42141,33.06475],[35.4261,33.06533],[35.42968,33.06579],[35.43072,33.06599],[35.43164,33.06709],[35.43377,33.07085],[35.43635,33.07518],[35.44279,33.08574],[35.44564,33.09061],[35.44632,33.09085],[35.45802,33.09252],[35.46259,33.09318],[35.46482,33.09318],[35.46721,33.09318],[35.47358,33.09296],[35.48089,33.09285],[35.48246,33.09279],[35.4898,33.09222],[35.49126,33.09211],[35.49672,33.09115],[35.5007,33.09042],[35.50273,33.09003],[35.50344,33.08996],[35.50324,33.09152],[35.50269,33.10059],[35.50209,33.11187],[35.50202,33.1127],[35.50283,33.11563],[35.51432,33.11645],[35.51605,33.11636],[35.51956,33.11722],[35.53073,33.13272],[35.52841,33.13656],[35.52647,33.14076],[35.52879,33.15111],[35.52965,33.15531],[35.53472,33.16751],[35.5358,33.17153],[35.53613,33.1723],[35.53613,33.17379],[35.53667,33.17447],[35.53769,33.17903],[35.53958,33.18671],[35.54082,33.19181],[35.54158,33.19479],[35.54179,33.19542],[35.54098,33.20084],[35.54066,33.20161],[35.53974,33.20387],[35.53677,33.20892],[35.53715,33.21141],[35.5372,33.22008],[35.5371,33.22518],[35.53726,33.2319],[35.53726,33.23254],[35.53828,33.23348],[35.54422,33.23678],[35.54552,33.23737],[35.54665,33.23962],[35.54681,33.24545],[35.54633,33.25361],[35.54735,33.25438],[35.55205,33.2561],[35.55555,33.2579],[35.55706,33.26372],[35.55858,33.26517],[35.56009,33.26873],[35.56365,33.27279],[35.56467,33.27482],[35.56305,33.2829],[35.56333,33.28479],[35.56349,33.28536],[35.56363,33.28559],[35.564,33.28624],[35.56439,33.28673],[35.5648,33.28778],[35.56554,33.28853],[35.56566,33.28865],[35.56666,33.28951],[35.56783,33.29053],[35.56824,33.29051],[35.56913,33.29029],[35.56953,33.28995],[35.57037,33.28921],[35.57098,33.28829],[35.57193,33.28773],[35.57338,33.28749],[35.57392,33.28741],[35.57418,33.28737],[35.57572,33.28716],[35.57678,33.28702],[35.57835,33.28614],[35.57915,33.28568],[35.58056,33.28488],[35.58176,33.28413],[35.58252,33.28364],[35.58392,33.28278],[35.58458,33.28216],[35.58514,33.28167],[35.58515,33.27931],[35.58515,33.27862],[35.58532,33.27745],[35.58554,33.2759],[35.58577,33.27416],[35.58587,33.27339],[35.58573,33.2722],[35.58572,33.27207],[35.58541,33.27076],[35.58508,33.2694],[35.58491,33.26875],[35.58458,33.26747],[35.58481,33.26728],[35.58518,33.26698],[35.58596,33.26642],[35.58623,33.26622],[35.58721,33.26555],[35.58786,33.26511],[35.58827,33.26483],[35.58854,33.26465],[35.58887,33.26442],[35.58919,33.26421],[35.58957,33.26395],[35.59022,33.26356],[35.5909,33.26317],[35.59115,33.26302],[35.59362,33.26156],[35.59398,33.26135],[35.59433,33.2609],[35.59505,33.25996],[35.59546,33.25943],[35.59572,33.25906],[35.59581,33.25891],[35.59651,33.25753],[35.59819,33.25582],[35.60074,33.2532],[35.60099,33.25309],[35.60198,33.25267],[35.60391,33.25195],[35.60475,33.25161],[35.60713,33.2507],[35.60821,33.25028],[35.61036,33.24955],[35.61075,33.24939],[35.61201,33.24896],[35.61416,33.24802],[35.61624,33.24652],[35.61744,33.24594],[35.62283,33.24377],[35.62357,33.2436],[35.62328,33.24442],[35.62389,33.24518],[35.62478,33.24557],[35.6253,33.24618],[35.62475,33.24714],[35.62445,33.24827],[35.62408,33.24916],[35.62352,33.25021],[35.62376,33.25141],[35.62375,33.25224],[35.62328,33.25313],[35.62274,33.25335],[35.62113,33.2534],[35.61979,33.25361],[35.61941,33.25458],[35.61975,33.25556],[35.6209,33.25617],[35.62133,33.25686],[35.62113,33.2579],[35.62102,33.2588],[35.62136,33.25964],[35.62234,33.25987],[35.62295,33.26056],[35.62222,33.26152],[35.62185,33.26227],[35.62228,33.26303],[35.62234,33.26408],[35.62241,33.26506],[35.62176,33.26647],[35.62119,33.26812],[35.62045,33.26923],[35.62085,33.27142],[35.62156,33.27203],[35.62163,33.27249],[35.62273,33.27265],[35.62895,33.27517],[35.64124,33.27944],[35.64356,33.27935],[35.64511,33.2788],[35.6563,33.27499],[35.65799,33.2745],[35.65989,33.27473],[35.66207,33.27672],[35.6621,33.27676],[35.66103,33.27578],[35.66107,33.27582],[35.66114,33.27589],[35.66129,33.27603],[35.66133,33.27607],[35.6619,33.27672],[35.66263,33.27748],[35.6628,33.27774],[35.66328,33.27842],[35.66384,33.27913],[35.66441,33.27966],[35.66514,33.28006],[35.66618,33.28058],[35.66635,33.28064],[35.66635,33.28064],[35.66635,33.28064],[35.66635,33.28064]]]}}]}