{"type":"FeatureCollection","features":[{"type":"Feature","properties":{},"geometry":{"type":"Polygon","coordinates":[[[35.69528,33.54739],[35.69548,33.54752],[35.6964,33.54784],[35.69646,33.54814],[35.69599,33.5483],[35.69579,33.54837],[35.69597,33.54905],[35.69696,33.54925],[35.6969,33.55007],[35.69635,33.55116],[35.69721,33.55166],[35.69862,33.55268],[35.69816,33.55365],[35.6999,33.55358],[35.70013,33.55367],[35.70093,33.55397],[35.70165,33.55414],[35.70252,33.55497],[35.70391,33.55535],[35.70391,33.55535],[35.70412,33.55643],[35.70391,33.55751],[35.70434,33.55771],[35.70474,33.55833],[35.70408,33.55878],[35.70298,33.56044],[35.70261,33.56134],[35.70369,33.56117],[35.70437,33.56151],[35.70523,33.56216],[35.70546,33.56312],[35.70493,33.56449],[35.70501,33.56565],[35.70584,33.5674],[35.7063,33.56781],[35.7068,33.56825],[35.70689,33.56877],[35.70709,33.56975],[35.70689,33.57017],[35.70577,33.57013],[35.7054,33.57106],[35.70622,33.57176],[35.70623,33.57271],[35.70667,33.57321],[35.70644,33.57368],[35.70491,33.57324],[35.7034,33.57313],[35.7024,33.57393],[35.70159,33.57525],[35.70168,33.57588],[35.70319,33.57647],[35.70413,33.57659],[35.7049,33.57635],[35.70619,33.57651],[35.70648,33.5771],[35.70647,33.57766],[35.70596,33.57829],[35.70584,33.57877],[35.7047,33.57921],[35.70532,33.57998],[35.70571,33.58105],[35.7052,33.58106],[35.70406,33.58088],[35.70364,33.58109],[35.70359,33.58145],[35.70409,33.58192],[35.70467,33.58243],[35.70451,33.58301],[35.70427,33.5832],[35.70383,33.58336],[35.70386,33.58377],[35.70433,33.5837],[35.70624,33.58509],[35.70632,33.58548],[35.70465,33.58545],[35.70345,33.58551],[35.70292,33.58582],[35.70282,33.58608],[35.70283,33.58644],[35.70375,33.58649],[35.70578,33.58674],[35.70711,33.58727],[35.70905,33.58822],[35.70885,33.58842],[35.70742,33.58822],[35.70588,33.58799],[35.70524,33.58789],[35.70512,33.5883],[35.70398,33.5884],[35.70401,33.58933],[35.7032,33.59026],[35.70294,33.58982],[35.70256,33.58914],[35.70144,33.5882],[35.70057,33.58794],[35.70065,33.58922],[35.70058,33.58969],[35.70187,33.59039],[35.70189,33.5913],[35.7024,33.59261],[35.702,33.59325],[35.70056,33.5927],[35.6998,33.59196],[35.69833,33.59123],[35.69732,33.59026],[35.69665,33.59002],[35.69679,33.59102],[35.69771,33.59204],[35.69849,33.59353],[35.6977,33.59465],[35.69806,33.59672],[35.69833,33.5983],[35.70001,33.59935],[35.70148,33.59969],[35.70142,33.59976],[35.70179,33.59996],[35.7023,33.6003],[35.70267,33.60086],[35.70287,33.60151],[35.70292,33.602],[35.70292,33.60202],[35.70256,33.60185],[35.6991,33.60022],[35.69741,33.59953],[35.69704,33.59857],[35.69671,33.59769],[35.69563,33.59526],[35.69607,33.59461],[35.69699,33.59469],[35.69742,33.59373],[35.69668,33.59278],[35.69578,33.59254],[35.69643,33.59204],[35.69597,33.59142],[35.69557,33.5894],[35.69508,33.58922],[35.69473,33.58894],[35.69314,33.58764],[35.69189,33.58767],[35.69061,33.58505],[35.68987,33.58261],[35.68896,33.58055],[35.68814,33.58019],[35.68771,33.5785],[35.68784,33.57853],[35.68814,33.57854],[35.68862,33.57888],[35.68879,33.57875],[35.68898,33.57866],[35.68919,33.57858],[35.6894,33.57852],[35.68963,33.57849],[35.68983,33.57835],[35.68925,33.57781],[35.68983,33.57835],[35.68963,33.57849],[35.6894,33.57852],[35.68919,33.57858],[35.68898,33.57866],[35.68879,33.57875],[35.68862,33.57888],[35.68814,33.57854],[35.68784,33.57853],[35.68771,33.5785],[35.68728,33.57686],[35.68597,33.57454],[35.68469,33.57345],[35.68413,33.57138],[35.68441,33.56804],[35.68525,33.56722],[35.68582,33.56773],[35.68666,33.56749],[35.68696,33.56636],[35.68697,33.56523],[35.68715,33.56375],[35.68697,33.56299],[35.68608,33.56182],[35.68508,33.56108],[35.68411,33.55969],[35.68416,33.55558],[35.6842,33.55198],[35.68471,33.55055],[35.68459,33.54947],[35.68477,33.54893],[35.68808,33.5486],[35.68875,33.54846],[35.6915,33.54793],[35.69471,33.54732],[35.69496,33.54739],[35.69517,33.54751],[35.69528,33.54739]]]}}]}