{"type":"FeatureCollection","features":[{"type":"Feature","properties":{"name":"Litani River","name_ar":"نهر الليطاني","class":"river"},"geometry":{"type":"MultiLineString","coordinates":[[[35.59701,33.39573],[35.59677,33.39551],[35.59662,33.39535],[35.59644,33.39514],[35.59627,33.39488],[35.59603,33.39444],[35.59582,33.3941],[35.59548,33.39357],[35.5954,33.39338],[35.59526,33.39297],[35.59513,33.39219],[35.59495,33.39143],[35.59482,33.39053],[35.59486,33.39013],[35.59493,33.38996],[35.59515,33.38962],[35.59526,33.38949],[35.59534,33.38933],[35.59539,33.38921],[35.5954,33.38902],[35.59538,33.38883],[35.59531,33.38862],[35.59518,33.38831],[35.595,33.38785],[35.59492,33.38759],[35.59486,33.38738],[35.59486,33.38724],[35.5949,33.3871],[35.595,33.38694],[35.59532,33.38644],[35.59545,33.3862],[35.59548,33.38597],[35.59539,33.38569],[35.59512,33.38518],[35.59491,33.38493],[35.59456,33.38456],[35.59422,33.38421],[35.59399,33.38392],[35.5938,33.38362],[35.59364,33.38328],[35.59346,33.38295],[35.59333,33.38268],[35.59313,33.38242],[35.59297,33.38225],[35.59265,33.38206],[35.59246,33.38196],[35.59229,33.38189],[35.59196,33.38178],[35.59131,33.38166],[35.59077,33.38155],[35.59049,33.38151],[35.59011,33.38148],[35.58984,33.38146],[35.58966,33.38143],[35.58945,33.38137],[35.58918,33.38127],[35.58889,33.38116],[35.58848,33.38101],[35.58824,33.38091],[35.58805,33.38083],[35.58775,33.3807],[35.58755,33.38061],[35.58738,33.38056],[35.58718,33.38048],[35.58695,33.38042],[35.58669,33.38036],[35.58652,33.38029],[35.58626,33.38013],[35.58601,33.37998],[35.58581,33.37983],[35.58558,33.37974],[35.58526,33.37967],[35.58499,33.37962],[35.58442,33.37955],[35.58412,33.37955],[35.5833,33.3796],[35.58301,33.37964],[35.58268,33.37968],[35.58246,33.37973],[35.58216,33.37982],[35.5814,33.38016],[35.58114,33.38026],[35.58095,33.38033],[35.58075,33.38036],[35.58047,33.38041],[35.5803,33.38045],[35.58014,33.38051],[35.57998,33.38059],[35.5798,33.38069],[35.5797,33.38078],[35.5794,33.38106],[35.57916,33.38133],[35.57875,33.38173],[35.57833,33.38207],[35.57805,33.38224],[35.57775,33.38238],[35.57749,33.38249],[35.57725,33.38256],[35.57706,33.38259],[35.57674,33.38262]]]}},{"type":"Feature","properties":{"name":"Litani River","name_ar":"نهر الليطاني","class":"river"},"geometry":{"type":"MultiLineString","coordinates":[[[35.56992,33.38197],[35.56979,33.38194]]]}},{"type":"Feature","properties":{"name":"Litani River","name_ar":"نهر الليطاني","class":"river"},"geometry":{"type":"MultiLineString","coordinates":[[[35.57674,33.38262],[35.57645,33.38263],[35.5763,33.38263],[35.57609,33.38262],[35.57548,33.38255],[35.57501,33.38254],[35.57459,33.38252],[35.57377,33.38252],[35.57294,33.38252],[35.57266,33.38254],[35.57245,33.38253],[35.57222,33.38251],[35.57206,33.38249],[35.57195,33.38246],[35.57178,33.3824],[35.57155,33.38228],[35.57132,33.38219],[35.57118,33.38215],[35.57083,33.38209],[35.57036,33.38203],[35.56992,33.38197]]]}},{"type":"Feature","properties":{"name":"Litani River","name_ar":"نهر الليطاني","class":"river"},"geometry":{"type":"MultiLineString","coordinates":[[[35.56979,33.38194],[35.56961,33.38189],[35.56944,33.38184],[35.56932,33.38183],[35.56924,33.38183],[35.56918,33.38183],[35.56911,33.38185],[35.56895,33.38191],[35.56882,33.38195],[35.5687,33.38197],[35.56854,33.38199],[35.56834,33.38201],[35.56815,33.38202],[35.56792,33.38202],[35.56777,33.382],[35.56762,33.38196],[35.56742,33.38188],[35.56709,33.38173],[35.56701,33.3817],[35.56691,33.38167],[35.56681,33.38163],[35.56664,33.38159],[35.56659,33.38158],[35.56653,33.38156]]]}},{"type":"Feature","properties":{"name":"Litani River","name_ar":"نهر الليطاني","class":"river"},"geometry":{"type":"MultiLineString","coordinates":[[[35.56653,33.38156],[35.56642,33.38152]]]}},{"type":"Feature","properties":{"name":"Litani River","name_ar":"نهر الليطاني","class":"river"},"geometry":{"type":"MultiLineString","coordinates":[[[35.56642,33.38152],[35.56625,33.38146],[35.56613,33.38144],[35.5659,33.3814],[35.5656,33.38135],[35.56524,33.38129],[35.56511,33.38126],[35.56502,33.38121]]]}},{"type":"Feature","properties":{"name":"Litani River","name_ar":"نهر الليطاني","class":"river"},"geometry":{"type":"MultiLineString","coordinates":[[[35.56502,33.38121],[35.56495,33.38114],[35.56488,33.38105],[35.56481,33.38091],[35.56476,33.38077],[35.56472,33.38071],[35.5646,33.38063],[35.56444,33.38052],[35.56421,33.38039],[35.56401,33.38024],[35.56373,33.37998],[35.5636,33.37981],[35.5635,33.37962],[35.56339,33.37932],[35.56327,33.37893],[35.56319,33.37872],[35.5631,33.3786],[35.56298,33.3785],[35.5628,33.37841],[35.56212,33.37813],[35.56194,33.37807],[35.56162,33.378],[35.56139,33.37796],[35.56114,33.37796],[35.56091,33.37797],[35.56073,33.37799],[35.56037,33.37806],[35.56017,33.37809],[35.56005,33.37808],[35.55994,33.37806],[35.55984,33.37803],[35.55968,33.37795],[35.55944,33.37787],[35.5592,33.37782],[35.55855,33.37772],[35.55834,33.37768],[35.55818,33.37761],[35.55804,33.37753],[35.55757,33.37716],[35.55734,33.37693],[35.55725,33.37679],[35.5572,33.37668],[35.55715,33.37653],[35.5571,33.37638],[35.55707,33.37628],[35.55703,33.3762],[35.55694,33.37609],[35.55683,33.37599],[35.55671,33.37591],[35.55661,33.37585],[35.55653,33.37581],[35.55642,33.37578],[35.55607,33.3757],[35.55587,33.37565],[35.55566,33.37559],[35.5555,33.37552],[35.55525,33.37543],[35.55511,33.37539],[35.55494,33.37535],[35.55454,33.3753],[35.55444,33.37527],[35.55435,33.37523],[35.55422,33.37516],[35.55414,33.3751],[35.55409,33.37502],[35.55406,33.37493],[35.55406,33.37482],[35.55405,33.37459],[35.55403,33.37434],[35.55399,33.37419],[35.55398,33.37412],[35.55393,33.37402],[35.55387,33.37391],[35.55382,33.37384],[35.5537,33.37373],[35.55354,33.37363],[35.55287,33.37324],[35.55235,33.37292],[35.55217,33.37276],[35.55206,33.37264],[35.55192,33.37241],[35.55166,33.37193],[35.55159,33.37176],[35.55154,33.37155],[35.55151,33.37135],[35.5515,33.37114],[35.55153,33.37092],[35.55153,33.37085],[35.55152,33.37078],[35.55148,33.37063],[35.55141,33.3705],[35.55135,33.3704],[35.55127,33.37031],[35.55107,33.37016],[35.55081,33.36997],[35.55069,33.36986],[35.55063,33.36977],[35.55058,33.36965],[35.55055,33.36952],[35.55053,33.36935],[35.55045,33.36872],[35.55043,33.36856],[35.55039,33.36841],[35.5503,33.36825],[35.55023,33.36815],[35.55003,33.36798],[35.54957,33.36767],[35.54886,33.36721],[35.54866,33.36705],[35.54852,33.36693],[35.54841,33.3668],[35.54835,33.36669],[35.54833,33.36662],[35.54834,33.36649],[35.54839,33.36637],[35.54848,33.36625],[35.54876,33.36592],[35.54903,33.36559],[35.54925,33.36528],[35.54948,33.36495],[35.54961,33.36467],[35.54967,33.36447],[35.54969,33.36429],[35.54968,33.36411],[35.54965,33.36395],[35.54959,33.36382],[35.54931,33.36333],[35.54917,33.36308],[35.54904,33.36281],[35.54899,33.36263],[35.54897,33.3625],[35.54899,33.36233],[35.54902,33.36214],[35.54907,33.36193],[35.54917,33.36172],[35.54925,33.36157],[35.54957,33.3612],[35.54989,33.36084],[35.54994,33.36077],[35.55,33.36066],[35.55002,33.36055],[35.55001,33.36048],[35.54998,33.36042],[35.54989,33.36031],[35.54975,33.36018],[35.54964,33.36008],[35.54959,33.36],[35.54953,33.35991],[35.54951,33.35983],[35.54939,33.35934],[35.5493,33.35907],[35.5492,33.35886],[35.54905,33.35868],[35.54891,33.35853],[35.5488,33.35844],[35.54867,33.35834],[35.5485,33.35826],[35.54828,33.35819],[35.54796,33.3581],[35.54768,33.35806],[35.54738,33.35801],[35.54724,33.35796],[35.54713,33.35785],[35.547,33.35768],[35.54689,33.35744],[35.54684,33.35726],[35.54683,33.3571],[35.54684,33.35695],[35.54688,33.35671],[35.54694,33.3565],[35.547,33.35635],[35.54709,33.35617],[35.54724,33.35596],[35.54731,33.35584],[35.54735,33.35569],[35.54737,33.35551],[35.54734,33.35525],[35.54726,33.35496],[35.54723,33.35478],[35.54717,33.35456],[35.54709,33.35434],[35.54702,33.35418],[35.54692,33.35396],[35.54683,33.35378],[35.54677,33.35367],[35.54669,33.35352],[35.5466,33.35337],[35.54644,33.35316],[35.54621,33.35293],[35.54609,33.35281],[35.54582,33.35255],[35.54536,33.35216],[35.54519,33.35205],[35.54508,33.35199],[35.54494,33.35196],[35.54477,33.35195],[35.54444,33.35199],[35.54411,33.35203],[35.54398,33.35203],[35.54382,33.35202],[35.54372,33.35198],[35.5436,33.35194],[35.54347,33.35183],[35.54333,33.35171],[35.54326,33.35164],[35.5432,33.35156],[35.54294,33.35114],[35.5426,33.35063],[35.54233,33.35027],[35.54215,33.35006],[35.54198,33.3499],[35.54192,33.34983],[35.54185,33.34955],[35.54185,33.34948],[35.54186,33.34941],[35.54201,33.3491],[35.54206,33.34895],[35.54212,33.34879],[35.54248,33.34784],[35.54257,33.34767],[35.5427,33.34745],[35.54272,33.3474],[35.54272,33.34732],[35.5427,33.34724],[35.54265,33.34713],[35.54254,33.34699],[35.54234,33.3467],[35.54222,33.34657],[35.54211,33.34649],[35.54191,33.34637],[35.54156,33.34624],[35.5414,33.34619],[35.54122,33.34617],[35.54107,33.34618],[35.54091,33.34622],[35.54057,33.3463],[35.54023,33.34636],[35.5401,33.34638],[35.54,33.34638],[35.53993,33.34636],[35.53988,33.34634],[35.53982,33.34628],[35.53979,33.34623],[35.53978,33.34617],[35.53979,33.34608],[35.53982,33.34599],[35.53989,33.34576],[35.53995,33.34559],[35.53999,33.34542],[35.54002,33.34521],[35.54008,33.34481],[35.5401,33.3447],[35.54013,33.34461],[35.54017,33.34454],[35.54024,33.34447],[35.54033,33.34441],[35.54045,33.34437],[35.54057,33.34433],[35.54072,33.34431],[35.54096,33.34428],[35.54127,33.34429],[35.54163,33.34432],[35.54287,33.3445],[35.54362,33.34459],[35.54376,33.34462],[35.54387,33.34465],[35.54399,33.34469],[35.54409,33.34471],[35.54414,33.34471],[35.54422,33.3447],[35.54436,33.34463],[35.54451,33.34453],[35.54457,33.34449],[35.54471,33.34439],[35.54478,33.34432],[35.54483,33.34424],[35.54485,33.34418],[35.54484,33.34409],[35.54478,33.3439],[35.54472,33.34381],[35.54463,33.34373],[35.54441,33.34359],[35.54409,33.34339],[35.544,33.34329],[35.54395,33.34322],[35.54393,33.34317],[35.54392,33.34312],[35.54383,33.3428],[35.5438,33.34269],[35.54374,33.34259],[35.54366,33.34247],[35.54356,33.34238],[35.54348,33.34232],[35.5434,33.34229],[35.54333,33.34229],[35.5432,33.34227],[35.54304,33.34226],[35.54268,33.34238],[35.54251,33.34245],[35.54223,33.34255],[35.54205,33.34262],[35.54191,33.34264],[35.54172,33.34265],[35.54157,33.34262],[35.54139,33.3426],[35.54121,33.3426],[35.54099,33.34266],[35.54076,33.34273],[35.5406,33.3428],[35.54046,33.34281],[35.54035,33.34278],[35.54028,33.34274],[35.54022,33.34268],[35.54022,33.3426],[35.54024,33.3425],[35.54049,33.34192],[35.54059,33.34172],[35.54067,33.34159],[35.54079,33.34145],[35.54088,33.34138],[35.54116,33.34119],[35.54124,33.34113],[35.54149,33.34088],[35.5418,33.34051],[35.54216,33.34015],[35.54246,33.33984],[35.54254,33.33975],[35.54258,33.33967],[35.54262,33.33958],[35.54264,33.33931],[35.54268,33.33908],[35.54278,33.33878],[35.54292,33.33854],[35.54298,33.33836],[35.543,33.33824],[35.543,33.33812],[35.54298,33.33802],[35.54293,33.33785],[35.5428,33.3375],[35.5427,33.33729],[35.5426,33.33706],[35.54242,33.33635],[35.54238,33.33599],[35.54237,33.33546],[35.54235,33.33492],[35.5423,33.33431],[35.54228,33.33374],[35.54226,33.33357],[35.54221,33.3333],[35.54215,33.33296],[35.54209,33.33263],[35.54207,33.33243],[35.54207,33.3321],[35.5421,33.33189],[35.54209,33.33176],[35.54206,33.33165],[35.54192,33.33142],[35.54175,33.33114],[35.54138,33.33061],[35.54078,33.32973],[35.54053,33.32939],[35.5403,33.32906],[35.54013,33.32888],[35.53987,33.32865],[35.53939,33.32835],[35.53911,33.32816],[35.53899,33.32804],[35.5389,33.32792],[35.53886,33.32784],[35.53883,33.32765],[35.53884,33.32752],[35.53883,33.32731],[35.53878,33.32715],[35.53871,33.32699],[35.53861,33.32683],[35.53847,33.32664],[35.53828,33.32642],[35.538,33.32611],[35.53788,33.32593],[35.53785,33.32585],[35.53783,33.32577],[35.53782,33.32563],[35.53784,33.32547],[35.53789,33.32527],[35.53813,33.32431],[35.53829,33.32363],[35.53835,33.32318],[35.53836,33.32299],[35.53835,33.32292],[35.5383,33.32285],[35.53822,33.32278],[35.53798,33.32261],[35.53784,33.32249],[35.53782,33.32242],[35.53781,33.32234],[35.53783,33.32224],[35.53789,33.32214],[35.538,33.32198],[35.53816,33.32172],[35.53819,33.32165],[35.53821,33.32154],[35.53822,33.32144],[35.5382,33.3213],[35.53802,33.32057],[35.53788,33.31995],[35.53776,33.31957],[35.53772,33.31925],[35.53772,33.31889],[35.5378,33.31837],[35.53789,33.31794],[35.53793,33.31769],[35.53793,33.31755],[35.53789,33.31737],[35.53777,33.31715],[35.53763,33.31693],[35.5376,33.31681],[35.53758,33.31666],[35.5376,33.31644],[35.53766,33.31625],[35.53779,33.31596],[35.538,33.31558],[35.53842,33.31467],[35.53866,33.31418],[35.53883,33.31382],[35.53904,33.31338],[35.53918,33.31301],[35.53923,33.31288],[35.53926,33.31271],[35.53929,33.31259],[35.53933,33.31242],[35.53933,33.31231],[35.5393,33.31218],[35.53926,33.31203],[35.5392,33.31186],[35.53911,33.31155],[35.53906,33.31136],[35.53894,33.31089],[35.53885,33.31055],[35.53878,33.31026],[35.5387,33.31013],[35.53855,33.30998],[35.53808,33.30961],[35.53752,33.30914],[35.53733,33.3089],[35.53716,33.30857],[35.53705,33.30829],[35.53697,33.30798],[35.53688,33.30747],[35.53684,33.30721],[35.53682,33.30693],[35.5368,33.30668],[35.53682,33.30614],[35.53686,33.30543],[35.53691,33.30448],[35.53693,33.30409],[35.53689,33.30342],[35.5369,33.30313],[35.53691,33.303],[35.53695,33.3026],[35.53697,33.30232],[35.53697,33.30211],[35.53693,33.3018],[35.53686,33.30136],[35.53681,33.30103],[35.53679,33.30074],[35.53676,33.30041],[35.53673,33.30017],[35.53669,33.30005],[35.53664,33.29991],[35.53657,33.29982],[35.53645,33.29973],[35.5363,33.29963],[35.53609,33.2995],[35.53586,33.29934],[35.53554,33.29909],[35.53533,33.29892],[35.53516,33.29878],[35.53502,33.29867],[35.53487,33.29858],[35.5347,33.29848],[35.53438,33.29833],[35.5341,33.29819],[35.53341,33.2978],[35.53312,33.29762],[35.53285,33.29743],[35.5326,33.29727],[35.53224,33.29704],[35.53207,33.29696],[35.53184,33.29689],[35.53157,33.29683],[35.53082,33.29667],[35.53032,33.29654],[35.53006,33.29647],[35.52982,33.2964],[35.5294,33.29621],[35.52907,33.29608],[35.52872,33.29596],[35.52839,33.29588],[35.52807,33.29582],[35.5277,33.29578],[35.52738,33.29575],[35.52721,33.29572],[35.52705,33.29568],[35.52698,33.29568],[35.52691,33.2957],[35.52681,33.29575],[35.52673,33.29578],[35.52663,33.2958],[35.52642,33.29578],[35.52633,33.2958],[35.52625,33.29584],[35.52616,33.29592],[35.52609,33.29599],[35.526,33.29603],[35.52583,33.2961],[35.52561,33.29617],[35.52491,33.2964],[35.52432,33.29663],[35.52397,33.29676],[35.52365,33.29689],[35.52335,33.29706],[35.52307,33.29725],[35.5229,33.29737],[35.52276,33.29746],[35.52267,33.29749],[35.52254,33.29753],[35.52225,33.29761],[35.52208,33.29767],[35.52189,33.29776],[35.52171,33.29792],[35.52148,33.29813],[35.52138,33.29824],[35.52125,33.29842],[35.521,33.29882],[35.52081,33.29909],[35.5207,33.29925],[35.52057,33.29938],[35.52049,33.29945],[35.52038,33.29952],[35.52021,33.29961],[35.52001,33.29971],[35.51979,33.29983],[35.51973,33.29985],[35.51967,33.29985],[35.51961,33.29985],[35.51955,33.29982],[35.51951,33.29981],[35.51947,33.2998],[35.51939,33.2998],[35.51929,33.29981],[35.51921,33.29984],[35.51899,33.2999],[35.51879,33.29994],[35.51859,33.29995],[35.51832,33.29995],[35.51773,33.29992],[35.51751,33.29992],[35.51722,33.29995],[35.51697,33.29998],[35.51666,33.30005],[35.51641,33.30012],[35.51613,33.30022],[35.51592,33.30031],[35.51555,33.30048],[35.51521,33.30065],[35.51486,33.3008],[35.51435,33.30098],[35.51382,33.30113],[35.51279,33.30144],[35.51246,33.30153],[35.51205,33.30161],[35.51163,33.30167],[35.51114,33.30173],[35.51073,33.30173],[35.51031,33.30172],[35.51006,33.3017],[35.50984,33.30165],[35.50967,33.30159],[35.50951,33.30147],[35.50941,33.30135],[35.50932,33.30122],[35.50923,33.301],[35.50915,33.3008],[35.50907,33.30061],[35.50898,33.30046],[35.50886,33.30033],[35.50872,33.3002],[35.50858,33.30013],[35.50838,33.30006],[35.50812,33.30002],[35.5079,33.3],[35.50774,33.3],[35.50754,33.30001],[35.5073,33.30005],[35.50718,33.3001],[35.50676,33.30035],[35.50603,33.30079],[35.50519,33.3014],[35.50459,33.30186],[35.50395,33.3023],[35.50356,33.30254],[35.50329,33.30269],[35.50297,33.30284],[35.50279,33.30291],[35.50247,33.303],[35.50175,33.30316],[35.50117,33.30326],[35.50099,33.30328],[35.50082,33.30329],[35.50051,33.30328],[35.50013,33.30326],[35.49987,33.30323],[35.49907,33.30309],[35.49839,33.30299],[35.49753,33.30287],[35.49708,33.30282],[35.49665,33.30275],[35.49634,33.30269],[35.4961,33.30263],[35.49586,33.30253],[35.4957,33.30243],[35.49542,33.30225],[35.49524,33.30212],[35.49493,33.30195],[35.49452,33.30174],[35.49416,33.30158],[35.49383,33.30149],[35.49359,33.30145],[35.49339,33.30145],[35.49324,33.30145],[35.49303,33.30147],[35.49275,33.3015],[35.49232,33.30157],[35.49169,33.30171],[35.49142,33.30178],[35.49108,33.30188],[35.49076,33.30199],[35.49061,33.30205],[35.4905,33.3021],[35.4904,33.30216],[35.49028,33.30227],[35.49019,33.30234],[35.49012,33.30244],[35.49006,33.30257],[35.48995,33.3029],[35.48981,33.30318],[35.48978,33.30324],[35.48977,33.30332],[35.48981,33.30347],[35.48988,33.30364],[35.48997,33.30378],[35.49011,33.30389],[35.49019,33.30399],[35.49042,33.30427],[35.49053,33.30442],[35.49069,33.30468],[35.49073,33.30483],[35.49075,33.30494],[35.49073,33.30502],[35.49061,33.30521],[35.4904,33.3054],[35.4902,33.30557],[35.49006,33.30564],[35.48988,33.30571],[35.48971,33.30574],[35.48949,33.30576],[35.48914,33.30577],[35.48891,33.30576],[35.4887,33.30568],[35.48853,33.30565],[35.48841,33.30565],[35.48822,33.30558],[35.48816,33.30551],[35.48812,33.30541],[35.48807,33.30531],[35.4879,33.30511],[35.48784,33.30506],[35.48774,33.30497],[35.48744,33.30477],[35.48731,33.30472],[35.4872,33.30469],[35.4871,33.30468],[35.48699,33.30469],[35.48682,33.30472],[35.48666,33.30479],[35.48637,33.30498],[35.48616,33.30515],[35.48596,33.30534],[35.48576,33.30555],[35.48539,33.30597],[35.48506,33.30636],[35.48488,33.30662],[35.48475,33.30689],[35.48466,33.30709],[35.4846,33.30732],[35.48456,33.30767],[35.48454,33.30801],[35.48453,33.30836],[35.48452,33.30897],[35.48451,33.30949],[35.48448,33.30979],[35.48445,33.31005],[35.4844,33.31031],[35.48436,33.3105],[35.48429,33.31067],[35.48423,33.31078],[35.48417,33.31086],[35.48409,33.31094],[35.484,33.31101],[35.48389,33.31105],[35.4838,33.31107],[35.48371,33.31108],[35.48357,33.31109],[35.48342,33.31111],[35.4832,33.31113],[35.48296,33.31118],[35.4827,33.31127],[35.48239,33.3114],[35.48213,33.31152],[35.48174,33.31174],[35.48133,33.31202],[35.4811,33.31214],[35.48089,33.31224],[35.4807,33.31231],[35.48051,33.31234],[35.48033,33.31232],[35.48022,33.31228],[35.48009,33.31221],[35.47999,33.31213],[35.4799,33.31203],[35.47977,33.31186],[35.47965,33.31169],[35.47949,33.3114],[35.47934,33.31109],[35.47921,33.31082],[35.47912,33.31064],[35.47896,33.31035],[35.47883,33.31015],[35.4787,33.30997],[35.47855,33.30981],[35.47834,33.30963],[35.47807,33.30942],[35.47783,33.30927],[35.47737,33.30901],[35.47705,33.30887],[35.47688,33.30883],[35.47672,33.3088],[35.47662,33.30881],[35.4765,33.30883],[35.47641,33.30888],[35.47602,33.30916],[35.47584,33.30931],[35.47567,33.30946],[35.4755,33.30965],[35.47537,33.30983],[35.47531,33.30993],[35.47528,33.31003],[35.47525,33.31012],[35.4752,33.31041],[35.47516,33.31073],[35.47511,33.311],[35.47502,33.31134],[35.47493,33.31156],[35.47486,33.31169],[35.4748,33.31177],[35.47473,33.31182],[35.47462,33.31187],[35.47449,33.3119],[35.47428,33.31192],[35.47395,33.31191],[35.47366,33.31189],[35.47341,33.31184],[35.47268,33.31167],[35.47248,33.31162],[35.47224,33.31153],[35.47202,33.31143],[35.47191,33.31135],[35.47187,33.31127],[35.47185,33.31117],[35.47193,33.31094],[35.47201,33.31077],[35.47204,33.31063],[35.47205,33.31053],[35.47204,33.31041],[35.47194,33.31007],[35.47178,33.30945],[35.47163,33.30893],[35.47153,33.30866],[35.47138,33.3084],[35.47115,33.30812],[35.47092,33.30791],[35.47064,33.30768],[35.47044,33.30755],[35.47021,33.30744],[35.46992,33.30735],[35.46951,33.3073],[35.46914,33.30729],[35.46875,33.30731],[35.46847,33.30734],[35.46818,33.3074],[35.46801,33.30745],[35.46782,33.30753],[35.46771,33.30762],[35.46763,33.30772],[35.46759,33.3078],[35.46756,33.3079],[35.46754,33.30802],[35.46752,33.30825],[35.46745,33.30849],[35.46738,33.30865],[35.46733,33.30872],[35.46726,33.30877],[35.46716,33.30881],[35.46698,33.30885],[35.46679,33.30887],[35.46662,33.30889],[35.46627,33.30889],[35.46594,33.30886],[35.46567,33.30881],[35.46502,33.30864],[35.46477,33.30859],[35.46447,33.30857],[35.46409,33.30859],[35.46362,33.30867],[35.46308,33.30876],[35.46277,33.30883],[35.46256,33.30891],[35.46242,33.30897],[35.46237,33.30902],[35.46233,33.30907],[35.46231,33.30915],[35.46233,33.30926],[35.4624,33.30936],[35.46256,33.30953],[35.46286,33.30983],[35.46322,33.31023],[35.46341,33.31046],[35.46354,33.31057],[35.46366,33.31063],[35.46379,33.31067],[35.46395,33.31069],[35.46436,33.31068],[35.4645,33.31068],[35.46461,33.3107],[35.46468,33.31075],[35.46473,33.31083],[35.46478,33.31095],[35.46484,33.31113],[35.46485,33.31132],[35.4648,33.31146],[35.46475,33.31158],[35.46466,33.3117],[35.46457,33.3118]]]}},{"type":"Feature","properties":{"name":"Litani River","name_ar":"نهر الليطاني","class":"river"},"geometry":{"type":"MultiLineString","coordinates":[[[35.46457,33.3118],[35.4644,33.3119],[35.46425,33.31198],[35.46398,33.3121],[35.46367,33.31222],[35.46345,33.31229],[35.46322,33.31236],[35.46293,33.31242],[35.46263,33.31244],[35.4622,33.31244],[35.46192,33.31241],[35.46162,33.31237],[35.46128,33.31229],[35.46076,33.31216],[35.46027,33.31204],[35.45954,33.31189],[35.45878,33.31179],[35.4578,33.31164],[35.45703,33.31148],[35.45667,33.31137],[35.45626,33.3112],[35.45561,33.31089],[35.45538,33.31074],[35.45508,33.3105],[35.45481,33.31021],[35.45448,33.30988],[35.45384,33.3093],[35.45358,33.30906],[35.45331,33.30888],[35.45304,33.30877],[35.45281,33.30871],[35.45258,33.3087],[35.45235,33.30873],[35.45207,33.3088],[35.4519,33.30887],[35.45171,33.30898],[35.45159,33.30908],[35.45142,33.30928],[35.45111,33.30966],[35.45096,33.3098],[35.45083,33.3099],[35.45057,33.31008],[35.45028,33.31025],[35.45015,33.31031],[35.44998,33.31041],[35.44988,33.31048],[35.4498,33.31057],[35.44964,33.31077],[35.44941,33.31121],[35.44933,33.31134],[35.44924,33.31146],[35.44912,33.31156],[35.44893,33.3117],[35.44877,33.31178],[35.44859,33.31183],[35.44839,33.31186],[35.44815,33.31189],[35.44798,33.31191],[35.44762,33.31189],[35.44721,33.31185],[35.44681,33.31182],[35.44665,33.3118],[35.44638,33.31175],[35.44627,33.31172],[35.44597,33.31164],[35.44579,33.31156],[35.44565,33.31143],[35.4456,33.31136],[35.44552,33.31124],[35.44542,33.31099],[35.44533,33.31072],[35.44523,33.31051],[35.44514,33.31038],[35.44502,33.31022],[35.4448,33.30996],[35.44449,33.30962],[35.44423,33.3094],[35.44384,33.30909],[35.4436,33.30894],[35.44343,33.30887],[35.44327,33.30884],[35.44309,33.30881],[35.4429,33.30879],[35.44259,33.30878],[35.44229,33.30881],[35.44211,33.3088],[35.44193,33.30879],[35.44181,33.30876],[35.44162,33.30868],[35.44144,33.30858],[35.44084,33.30825],[35.44055,33.3081],[35.44022,33.30796],[35.44004,33.3079],[35.4398,33.30786],[35.43952,33.30786],[35.43931,33.30789],[35.43884,33.30801],[35.4385,33.3081],[35.43818,33.30817],[35.43799,33.30824],[35.43784,33.30831],[35.43762,33.30843],[35.43738,33.30859],[35.43705,33.30879],[35.43668,33.30901],[35.43654,33.30909],[35.43603,33.30939],[35.43568,33.30958],[35.43493,33.30989],[35.43464,33.30997],[35.43432,33.31005],[35.4338,33.31013],[35.4336,33.31014],[35.43332,33.31012],[35.43305,33.31007],[35.43289,33.31],[35.43274,33.30991],[35.43259,33.30976]]]}},{"type":"Feature","properties":{"name":"Litani River","name_ar":"نهر الليطاني","class":"river"},"geometry":{"type":"MultiLineString","coordinates":[[[35.43259,33.30976],[35.43251,33.30964],[35.43247,33.30956],[35.43243,33.30946],[35.43236,33.30917],[35.43228,33.30891],[35.43225,33.30882],[35.43222,33.30875],[35.43215,33.30868],[35.43209,33.30864],[35.43198,33.30861],[35.43187,33.3086],[35.43173,33.30861],[35.43151,33.30865],[35.4311,33.30875],[35.43088,33.30882],[35.43074,33.30889],[35.43053,33.30906],[35.43037,33.30923],[35.43029,33.30936],[35.43021,33.30957],[35.43004,33.31007],[35.42989,33.31053],[35.42985,33.31079],[35.42986,33.311],[35.42988,33.3111],[35.42991,33.31119],[35.42999,33.31128],[35.43008,33.31135],[35.4305,33.31154],[35.43057,33.31158],[35.43065,33.31166],[35.43071,33.31176],[35.43074,33.31188],[35.43078,33.31214],[35.43082,33.31232],[35.43085,33.31244],[35.43093,33.31268],[35.43103,33.31299],[35.43114,33.31329],[35.43118,33.31346],[35.4312,33.3136],[35.4312,33.31368],[35.43117,33.31375],[35.43114,33.31382],[35.43108,33.3139],[35.431,33.31397],[35.43084,33.31407],[35.43055,33.31424],[35.43046,33.31428],[35.43037,33.3143],[35.43026,33.31431],[35.42987,33.31429],[35.42974,33.31429],[35.42963,33.31429],[35.42956,33.31431],[35.42949,33.31435],[35.42945,33.31437],[35.42938,33.31446],[35.42931,33.31456],[35.42918,33.31474],[35.4291,33.31484],[35.42901,33.31493],[35.42888,33.31508],[35.42872,33.31522],[35.42863,33.31527],[35.42854,33.31533],[35.4284,33.31538],[35.42823,33.31542],[35.42811,33.31544],[35.42803,33.31545],[35.42789,33.31545],[35.4276,33.31546],[35.42732,33.31546],[35.42713,33.31546],[35.42682,33.31544],[35.42653,33.31544],[35.42618,33.31544],[35.42582,33.31548],[35.42554,33.31551],[35.42497,33.3156],[35.4244,33.31569],[35.42407,33.31573],[35.42358,33.31576],[35.42338,33.31575],[35.42318,33.31573],[35.42285,33.3157],[35.42257,33.31567],[35.42243,33.31567],[35.42228,33.31569],[35.42213,33.31572],[35.42178,33.31579],[35.4216,33.31581],[35.42139,33.3158],[35.42126,33.31578],[35.42108,33.31573],[35.42099,33.31568],[35.42093,33.31563],[35.42086,33.31554],[35.42083,33.31543],[35.42084,33.31509],[35.42085,33.31491],[35.42084,33.31461],[35.42084,33.31431],[35.42085,33.31382],[35.42091,33.31348],[35.42097,33.31315],[35.42108,33.31271],[35.42115,33.31232],[35.42116,33.31211],[35.42115,33.31198],[35.42112,33.31187],[35.42106,33.31174],[35.42096,33.31163],[35.42084,33.31157],[35.42059,33.31151],[35.42027,33.31147],[35.41981,33.31145],[35.41867,33.31139],[35.41843,33.31138],[35.4182,33.31135],[35.41807,33.31131],[35.41798,33.31126],[35.41791,33.31118],[35.41787,33.31109],[35.41785,33.31097],[35.41785,33.31086],[35.41787,33.3107],[35.41792,33.31055],[35.41812,33.30985],[35.41819,33.30967],[35.41824,33.30947],[35.41827,33.30928],[35.41826,33.30913],[35.41822,33.30904],[35.41814,33.30893],[35.4181,33.3089],[35.41801,33.30886],[35.41794,33.30884],[35.41773,33.30882],[35.41761,33.3088],[35.41751,33.30877],[35.4173,33.30869],[35.41705,33.30858],[35.41685,33.30852],[35.41627,33.3084],[35.41538,33.30845],[35.41496,33.30845],[35.41453,33.30843],[35.41441,33.3084],[35.41431,33.30837],[35.41416,33.30831],[35.41381,33.30813],[35.41358,33.30801],[35.41343,33.30794],[35.41335,33.30787],[35.4132,33.30774],[35.41311,33.30765],[35.41304,33.30757],[35.413,33.30747],[35.41295,33.30734],[35.41285,33.30693],[35.41276,33.30656],[35.41271,33.30642],[35.41264,33.30627],[35.4125,33.30607],[35.41234,33.30584],[35.41217,33.30563],[35.41206,33.3055],[35.41197,33.30543],[35.41183,33.30534],[35.41164,33.30524],[35.41147,33.30513],[35.41127,33.30502],[35.41101,33.30486],[35.41076,33.3047],[35.41053,33.30456],[35.41029,33.30443],[35.41008,33.30433],[35.40989,33.30425],[35.4097,33.30419],[35.40956,33.30417],[35.40946,33.30418],[35.40937,33.30422],[35.4093,33.30427],[35.40917,33.30439],[35.4088,33.30482],[35.40865,33.30496],[35.40852,33.30501],[35.40842,33.30503],[35.40832,33.30502],[35.4082,33.30499],[35.40812,33.30493],[35.40806,33.30488],[35.408,33.3048],[35.40798,33.30472],[35.40799,33.30465],[35.40802,33.30457],[35.40806,33.3045],[35.40811,33.30443],[35.40814,33.3044],[35.4082,33.30436],[35.40832,33.3043],[35.40837,33.30428],[35.40842,33.30425],[35.40845,33.30421],[35.40847,33.30418],[35.40848,33.3041],[35.40848,33.30394],[35.40849,33.30385],[35.40852,33.30378],[35.40858,33.30364],[35.40865,33.30354],[35.40886,33.3033],[35.40892,33.30321],[35.40894,33.30312],[35.40892,33.30301],[35.40886,33.30294],[35.40873,33.30286],[35.40832,33.30276],[35.40766,33.30267],[35.40716,33.30254],[35.40685,33.30241],[35.40656,33.30228],[35.40645,33.3022],[35.40629,33.30202],[35.40614,33.30169],[35.40591,33.30129],[35.40568,33.30097],[35.40544,33.30074],[35.4053,33.30064],[35.40518,33.30059],[35.40501,33.3005],[35.40479,33.30042],[35.40464,33.30039],[35.40454,33.30039],[35.40441,33.30039],[35.40418,33.30045],[35.404,33.30053],[35.40367,33.30067],[35.4032,33.30095],[35.40305,33.30105],[35.40291,33.30117],[35.4028,33.30127],[35.40272,33.30137],[35.40265,33.3015],[35.40255,33.30175],[35.4025,33.302],[35.40246,33.30232],[35.40242,33.30264],[35.40241,33.30287],[35.40236,33.30313],[35.40224,33.30355],[35.40207,33.30405],[35.40197,33.30436],[35.40185,33.30459],[35.40176,33.30471],[35.40166,33.30481],[35.40158,33.30487],[35.40145,33.30494],[35.40126,33.30504],[35.40111,33.30513],[35.40097,33.30523],[35.40066,33.30549],[35.4003,33.3058],[35.3998,33.30617],[35.39953,33.30638],[35.39888,33.30695],[35.39834,33.30742],[35.39806,33.30762],[35.39792,33.3077],[35.39773,33.3078],[35.39747,33.30791],[35.39725,33.30799],[35.39698,33.30806],[35.39684,33.3081],[35.39662,33.30812],[35.39647,33.30812],[35.39624,33.30807],[35.39593,33.30803],[35.39523,33.30803],[35.39481,33.30804],[35.39452,33.30807],[35.39428,33.30815],[35.39413,33.3082],[35.39387,33.30833],[35.39363,33.30846],[35.39348,33.30856],[35.39338,33.30863],[35.39328,33.30873],[35.39315,33.30889],[35.39309,33.309],[35.3929,33.30929],[35.39276,33.30949],[35.39263,33.30964],[35.3925,33.30977],[35.39229,33.30998]]]}},{"type":"Feature","properties":{"name":"Litani River","name_ar":"نهر الليطاني","class":"river"},"geometry":{"type":"MultiLineString","coordinates":[[[35.39229,33.30998],[35.39209,33.31015],[35.39174,33.31046],[35.39151,33.3107],[35.39139,33.31079],[35.39125,33.31087],[35.39099,33.31096],[35.39058,33.31105],[35.39,33.3111],[35.38967,33.31111],[35.38914,33.31106],[35.38872,33.31099],[35.38848,33.31093],[35.38835,33.31087],[35.38827,33.3108],[35.3882,33.31069],[35.38809,33.31034],[35.388,33.31001],[35.38785,33.30938],[35.38765,33.30886],[35.38735,33.3082],[35.38719,33.30773],[35.38706,33.30733],[35.38688,33.30681],[35.3868,33.30666],[35.38672,33.30653],[35.3866,33.30634],[35.38639,33.30607],[35.38623,33.30591],[35.38609,33.30578],[35.38596,33.30569],[35.38585,33.30563],[35.38576,33.30561],[35.38565,33.30559],[35.38554,33.3056],[35.38541,33.30562],[35.38507,33.30568],[35.38459,33.30578],[35.38402,33.30591],[35.38369,33.306],[35.38319,33.30615],[35.38296,33.30622],[35.38277,33.30626],[35.38205,33.30637],[35.38172,33.30641],[35.38138,33.30643],[35.38119,33.30643],[35.38091,33.3064],[35.38069,33.30636],[35.38001,33.30621],[35.37935,33.30612],[35.37896,33.30609],[35.37865,33.30608],[35.3784,33.30608],[35.37807,33.30609],[35.37767,33.30611],[35.37726,33.30616],[35.37681,33.30619],[35.37654,33.3062],[35.37632,33.30618],[35.37616,33.30613],[35.37607,33.30609],[35.37598,33.30602],[35.3759,33.30595],[35.37569,33.30575],[35.37545,33.30536],[35.37532,33.30518],[35.37518,33.30505],[35.37509,33.30499],[35.37486,33.3049],[35.37455,33.30479],[35.37441,33.30475],[35.37425,33.30475],[35.37405,33.30478],[35.37385,33.30484],[35.37365,33.30491],[35.37351,33.30498],[35.37344,33.30507],[35.37332,33.30523],[35.37322,33.30537],[35.37318,33.30571],[35.37303,33.30597],[35.37275,33.3069],[35.37267,33.30729],[35.37263,33.30757],[35.37261,33.30808],[35.37261,33.30875],[35.37261,33.30908],[35.37246,33.30951],[35.37234,33.30981],[35.37217,33.30998],[35.37209,33.31013],[35.37203,33.31023],[35.37191,33.31033],[35.37157,33.31065],[35.37134,33.31076],[35.37116,33.31088],[35.37105,33.31096],[35.37098,33.311],[35.37079,33.31113],[35.37059,33.31125],[35.3705,33.31132],[35.37045,33.31137],[35.37039,33.31144],[35.37033,33.31153],[35.37026,33.31162],[35.3702,33.31168],[35.37005,33.31181],[35.36988,33.31193],[35.36953,33.31217],[35.36927,33.31231],[35.36916,33.31237],[35.36901,33.31244],[35.36882,33.3125],[35.36867,33.31254],[35.36852,33.31256],[35.36839,33.31253],[35.36817,33.31251],[35.368,33.31249],[35.36781,33.31245],[35.36763,33.31235],[35.36752,33.31229],[35.3674,33.3122],[35.36729,33.31212],[35.36716,33.31203],[35.36706,33.31189],[35.36689,33.31167],[35.36674,33.31137],[35.36663,33.31114],[35.36657,33.31098],[35.36651,33.3108],[35.36645,33.31059],[35.36638,33.31048],[35.36635,33.31036],[35.36629,33.31018],[35.36615,33.30979],[35.36607,33.30961],[35.36595,33.30941],[35.36578,33.30914],[35.36565,33.30895],[35.36542,33.30886],[35.36529,33.30885],[35.36521,33.30886],[35.3651,33.30884],[35.365,33.30885],[35.36491,33.30886],[35.36477,33.30893],[35.36452,33.30904],[35.36432,33.30915],[35.3642,33.30921],[35.36408,33.30931],[35.36399,33.30941],[35.36392,33.30955],[35.3639,33.30963],[35.36378,33.3099],[35.36369,33.31002],[35.36355,33.31022],[35.36345,33.31035],[35.36325,33.31053],[35.36312,33.31062],[35.36298,33.31069],[35.36285,33.31075],[35.36267,33.31081],[35.36247,33.31087],[35.36231,33.31089],[35.36209,33.3109],[35.36181,33.31089],[35.36149,33.31084],[35.36121,33.31078],[35.36093,33.31069],[35.36071,33.31061],[35.36047,33.3105],[35.36028,33.31037],[35.36007,33.31014],[35.35981,33.30987],[35.35967,33.3097],[35.35948,33.30942],[35.35922,33.30892],[35.35898,33.3086],[35.35885,33.30847],[35.35869,33.30834],[35.35854,33.30824],[35.35836,33.30814],[35.35823,33.30808],[35.35811,33.30806],[35.35793,33.30804],[35.35779,33.30805],[35.35765,33.30807],[35.35741,33.30809],[35.35727,33.30812],[35.35714,33.3082],[35.35709,33.30826],[35.35698,33.30843],[35.35688,33.30856],[35.35682,33.3087],[35.35676,33.30891],[35.35674,33.30908],[35.35675,33.30935],[35.3568,33.3099],[35.35682,33.31005],[35.35685,33.31031],[35.35695,33.3109],[35.35695,33.31105],[35.35693,33.31117],[35.35689,33.31132],[35.3568,33.3115],[35.35672,33.31164],[35.35664,33.31176],[35.35634,33.31207],[35.35602,33.31236],[35.35568,33.31258],[35.35555,33.31264],[35.35486,33.31298],[35.35373,33.31338],[35.35353,33.31345],[35.35318,33.3135],[35.35268,33.31357],[35.35075,33.31367],[35.34982,33.3137],[35.34943,33.3137],[35.34868,33.31369],[35.34835,33.31369],[35.34796,33.31369],[35.34769,33.31371],[35.34756,33.31373],[35.34742,33.31377],[35.34727,33.31384],[35.34704,33.3139],[35.34693,33.31396],[35.34674,33.31406],[35.34652,33.31424],[35.34647,33.31433],[35.34641,33.31444],[35.34638,33.31453],[35.34638,33.31461],[35.34639,33.31476],[35.3464,33.3148],[35.34649,33.3149],[35.34668,33.31515],[35.34672,33.31519],[35.34693,33.31537],[35.34702,33.31543],[35.34711,33.31553],[35.34715,33.31559],[35.3472,33.31569],[35.34726,33.31577],[35.34735,33.3159],[35.34751,33.31619],[35.34777,33.31655],[35.34788,33.31672],[35.348,33.31688],[35.34811,33.31704],[35.34823,33.3172],[35.34835,33.31737],[35.34853,33.31766],[35.34861,33.31777],[35.34872,33.31791],[35.34884,33.31802],[35.34893,33.31808],[35.3491,33.31822],[35.3493,33.31837],[35.34943,33.31849],[35.34956,33.31865],[35.34965,33.31881],[35.34972,33.31894],[35.34976,33.31901],[35.34978,33.31905],[35.34981,33.3191],[35.34982,33.31916],[35.34982,33.31923],[35.34982,33.31928],[35.34978,33.31936],[35.34975,33.31946],[35.34971,33.31962],[35.34967,33.31976],[35.34962,33.31989],[35.3496,33.32],[35.34947,33.32018],[35.34936,33.32028],[35.34923,33.32045],[35.3491,33.32056],[35.34898,33.32065],[35.34874,33.32069],[35.34851,33.32071],[35.34835,33.32074],[35.34817,33.32078],[35.34785,33.32091],[35.34757,33.32099],[35.34726,33.32107],[35.34708,33.32108],[35.34679,33.32106],[35.34654,33.32101],[35.34635,33.32095],[35.34604,33.32082],[35.34599,33.32071],[35.34572,33.32054],[35.34525,33.32034],[35.34502,33.32016],[35.34488,33.31994],[35.34477,33.31971],[35.34469,33.31953],[35.34466,33.31927],[35.34454,33.31873],[35.34455,33.31846],[35.34458,33.31806],[35.34459,33.31787],[35.34446,33.31766],[35.34435,33.3175],[35.34419,33.31724],[35.34404,33.31707],[35.34381,33.3169],[35.34352,33.31673],[35.34324,33.31665],[35.343,33.31662],[35.34281,33.31661],[35.34264,33.31662],[35.3424,33.31667],[35.3422,33.31672],[35.34196,33.31681],[35.3417,33.31689],[35.34139,33.31704]]]}},{"type":"Feature","properties":{"name":"Litani River","name_ar":"نهر الليطاني","class":"river"},"geometry":{"type":"MultiLineString","coordinates":[[[35.34139,33.31704],[35.34128,33.31711],[35.34117,33.31721],[35.34099,33.31741],[35.34085,33.31763],[35.34079,33.31779],[35.34077,33.31789],[35.34076,33.31798],[35.34077,33.31809],[35.3408,33.31822],[35.34084,33.31831],[35.34087,33.31835],[35.34103,33.31845],[35.34111,33.31851],[35.3412,33.31858],[35.34125,33.31863],[35.34128,33.31867],[35.3413,33.31872],[35.34129,33.31878],[35.34126,33.31911],[35.34127,33.31941],[35.34128,33.3196],[35.3413,33.31978],[35.34136,33.32011],[35.34153,33.3205],[35.34164,33.32071],[35.34188,33.32105],[35.34212,33.32139],[35.34222,33.32158],[35.34236,33.32187],[35.34247,33.32213],[35.3426,33.32244],[35.34267,33.32269],[35.34281,33.32324],[35.34289,33.32359],[35.34295,33.32393],[35.34299,33.32412],[35.34307,33.32438],[35.34316,33.32473],[35.34318,33.32507],[35.34318,33.32544],[35.34321,33.32587],[35.34322,33.32607],[35.34319,33.3262],[35.34313,33.32634],[35.34306,33.32647],[35.34293,33.32664],[35.34271,33.32692],[35.34238,33.32717],[35.34216,33.32729],[35.34195,33.32737],[35.34177,33.32742],[35.34151,33.32744],[35.34129,33.3274],[35.34108,33.32733],[35.34082,33.32724],[35.34043,33.32701],[35.3402,33.32685],[35.33963,33.32642],[35.3395,33.32635],[35.33938,33.32631],[35.33922,33.3263],[35.33905,33.32631],[35.33865,33.32639],[35.33809,33.32653],[35.33758,33.32663],[35.33744,33.32665],[35.33732,33.32665],[35.33725,33.32664],[35.33717,33.32663],[35.33676,33.32653],[35.33674,33.3265],[35.33672,33.32646],[35.33673,33.3264],[35.33674,33.32634],[35.33673,33.32628],[35.33669,33.32614],[35.33661,33.32603],[35.33649,33.3259],[35.33614,33.3256],[35.33565,33.32519],[35.33549,33.32501],[35.3352,33.32472],[35.33495,33.32441],[35.3348,33.32427],[35.33456,33.32388],[35.33451,33.32378],[35.33448,33.32374],[35.33437,33.32357],[35.33429,33.32347],[35.33409,33.32319],[35.33398,33.3231],[35.33367,33.32297],[35.33354,33.32295],[35.33339,33.32294],[35.33317,33.32294],[35.33302,33.32295],[35.33283,33.323],[35.33259,33.32311],[35.33237,33.32328],[35.33224,33.32339],[35.3322,33.32347],[35.33212,33.32382],[35.33208,33.32399],[35.33201,33.32422],[35.332,33.32432],[35.33202,33.32441],[35.33206,33.32454],[35.33209,33.32467],[35.33215,33.32486],[35.33224,33.32506],[35.33231,33.32521],[35.33234,33.32534],[35.33237,33.3255],[35.33236,33.32565],[35.33233,33.32571],[35.33226,33.32578],[35.33217,33.32586],[35.33147,33.32624],[35.33082,33.32647],[35.33023,33.32663],[35.33,33.32666],[35.32979,33.32668],[35.32948,33.32667],[35.32913,33.32661],[35.3289,33.32655],[35.32873,33.32647],[35.32851,33.32634]]]}},{"type":"Feature","properties":{"name":"Litani River","name_ar":"نهر الليطاني","class":"river"},"geometry":{"type":"MultiLineString","coordinates":[[[35.32399,33.32206],[35.32392,33.32208],[35.32386,33.32208],[35.32379,33.32208],[35.32368,33.32207],[35.32344,33.32205],[35.32327,33.32202],[35.32289,33.3219],[35.32262,33.3218],[35.32179,33.32152],[35.32157,33.32145],[35.32138,33.32137],[35.321,33.32114],[35.32055,33.32088],[35.32002,33.32061],[35.31974,33.32043],[35.31948,33.32026],[35.31926,33.32017],[35.31898,33.32009],[35.31871,33.32004],[35.31853,33.32002],[35.31841,33.32003],[35.31832,33.32009],[35.31826,33.32016],[35.31822,33.32026],[35.31819,33.32045],[35.31813,33.32067],[35.31796,33.32108],[35.31784,33.32136],[35.31778,33.32157],[35.31775,33.32175],[35.31773,33.32195],[35.31774,33.32208],[35.31779,33.32222],[35.31786,33.32236],[35.31799,33.32253],[35.31833,33.32304],[35.31849,33.32337],[35.31855,33.32358],[35.3186,33.3238],[35.31861,33.32396],[35.31854,33.32407],[35.31848,33.32414],[35.31843,33.32418],[35.31832,33.32423],[35.31822,33.32425],[35.31807,33.32424],[35.31757,33.32417],[35.31743,33.32417],[35.31732,33.32419],[35.3171,33.32431],[35.31702,33.32436],[35.3169,33.3244],[35.31678,33.32442],[35.31662,33.32442],[35.31642,33.32441],[35.31626,33.32439],[35.31608,33.32435],[35.31587,33.32429],[35.31512,33.32405],[35.31478,33.32395],[35.31452,33.32387],[35.31431,33.32378],[35.31366,33.32351],[35.3135,33.32347],[35.31331,33.32343],[35.31306,33.3234],[35.3128,33.3234],[35.31246,33.32341],[35.31182,33.32348],[35.31112,33.32354],[35.31086,33.32354],[35.3107,33.32351],[35.31057,33.32347],[35.3103,33.32337],[35.31021,33.3233],[35.31014,33.32323],[35.31001,33.32306],[35.30983,33.32275],[35.30976,33.32263],[35.30969,33.32248],[35.30966,33.32237],[35.30965,33.32219],[35.30963,33.32193],[35.30962,33.32175],[35.30957,33.32155],[35.3093,33.32108],[35.3092,33.3209],[35.309,33.32066],[35.30884,33.32051],[35.30873,33.32043],[35.30863,33.32038],[35.30849,33.32035],[35.30839,33.32035],[35.30824,33.32037],[35.30785,33.32047],[35.30769,33.32052],[35.30746,33.32061],[35.30727,33.32071],[35.3071,33.32082],[35.30701,33.32092],[35.30694,33.32101],[35.30688,33.32119],[35.30683,33.32141],[35.30677,33.3216],[35.30677,33.32172],[35.30678,33.3218],[35.30684,33.3219],[35.30707,33.32222],[35.30715,33.32239],[35.3073,33.32269],[35.30736,33.32283],[35.30744,33.32295],[35.30761,33.32318]]]}},{"type":"Feature","properties":{"name":"Litani River","name_ar":"نهر الليطاني","class":"river"},"geometry":{"type":"MultiLineString","coordinates":[[[35.32839,33.32628],[35.32797,33.32606],[35.32752,33.32583],[35.32729,33.32569],[35.32712,33.32552],[35.32698,33.32534],[35.32673,33.32486],[35.32656,33.32437],[35.32649,33.32413],[35.32645,33.3239],[35.32645,33.32377],[35.32647,33.32362],[35.32651,33.32343],[35.32667,33.32311],[35.32713,33.32236],[35.32735,33.32201],[35.32739,33.32186],[35.32737,33.32168],[35.32726,33.32144],[35.32666,33.32064],[35.32644,33.32043],[35.32623,33.32028],[35.32611,33.32023],[35.32591,33.32018],[35.3257,33.32017],[35.32552,33.32018],[35.3253,33.32026],[35.32516,33.32034],[35.32498,33.32049],[35.32493,33.32056],[35.32486,33.32067],[35.32481,33.32088],[35.32477,33.32106],[35.32468,33.32127],[35.3245,33.32154],[35.3243,33.32182],[35.32421,33.32192],[35.32412,33.32199],[35.32399,33.32206]]]}},{"type":"Feature","properties":{"name":"Litani River","name_ar":"نهر الليطاني","class":"river"},"geometry":{"type":"MultiLineString","coordinates":[[[35.32851,33.32634],[35.32839,33.32628]]]}},{"type":"Feature","properties":{"name":"Litani River","name_ar":"نهر الليطاني","class":"river"},"geometry":{"type":"MultiLineString","coordinates":[[[35.30761,33.32318],[35.30784,33.32343],[35.30791,33.32354],[35.30793,33.32358],[35.30791,33.32365],[35.30784,33.32377],[35.30772,33.32392],[35.30748,33.32421],[35.30737,33.32433],[35.30727,33.3244],[35.30714,33.32446],[35.30675,33.32464],[35.30572,33.32508],[35.30554,33.32513],[35.30535,33.32518],[35.30509,33.32521],[35.3049,33.32523],[35.30476,33.32523],[35.30449,33.32524],[35.30429,33.32525],[35.30405,33.32528],[35.30371,33.32534],[35.30317,33.32543],[35.30269,33.32549],[35.3024,33.32549],[35.30229,33.32548],[35.30219,33.32545],[35.3021,33.32541],[35.30183,33.32525],[35.30168,33.32515],[35.30138,33.32496],[35.30113,33.32483],[35.30074,33.32462],[35.30041,33.32446],[35.30011,33.32432],[35.29986,33.32417],[35.29968,33.32404],[35.29941,33.3238],[35.2993,33.32371],[35.29923,33.32366],[35.29905,33.3236],[35.29861,33.32355],[35.29835,33.32354],[35.29814,33.32355],[35.2979,33.32359]]]}},{"type":"Feature","properties":{"name":"Litani River","name_ar":"نهر الليطاني","class":"river"},"geometry":{"type":"MultiLineString","coordinates":[[[35.27345,33.32271],[35.27339,33.32268],[35.27332,33.32265],[35.27307,33.32259],[35.27274,33.32252],[35.27231,33.32242],[35.27165,33.32223],[35.27125,33.32213],[35.27092,33.32202],[35.27074,33.32196],[35.27064,33.32194],[35.27054,33.32195],[35.27047,33.32196],[35.27033,33.32202],[35.27019,33.32211],[35.27017,33.32217],[35.27017,33.32223],[35.27019,33.32228],[35.27038,33.32247],[35.27041,33.32252],[35.27043,33.32259],[35.27043,33.32268],[35.2704,33.32287],[35.27035,33.3231],[35.27029,33.32329],[35.27024,33.32341],[35.27013,33.32359],[35.26992,33.32387],[35.26966,33.32423],[35.26955,33.32437],[35.26949,33.32453],[35.26944,33.32493],[35.26942,33.32507],[35.26936,33.32518],[35.26925,33.32527],[35.26915,33.32531],[35.269,33.32535],[35.26871,33.32541],[35.26803,33.32547],[35.26776,33.32546],[35.26752,33.32543],[35.26722,33.32537],[35.26675,33.32521],[35.26656,33.32512],[35.26647,33.32506],[35.26641,33.32496],[35.26638,33.32485],[35.26638,33.32477],[35.26639,33.32461],[35.26643,33.32443],[35.2665,33.32414],[35.26665,33.32356],[35.26672,33.32333],[35.26683,33.32309],[35.26708,33.32254],[35.26711,33.32244],[35.26711,33.32234],[35.26709,33.32227],[35.26704,33.32212],[35.26669,33.3213],[35.26665,33.32121],[35.26658,33.32115],[35.26646,33.32109],[35.26633,33.32105],[35.2661,33.32102],[35.26598,33.32102],[35.26587,33.32103],[35.26576,33.32107],[35.26567,33.32114],[35.26557,33.32126],[35.26543,33.32154],[35.26528,33.32186],[35.26505,33.32243],[35.2646,33.32316],[35.26444,33.32354],[35.26416,33.32409],[35.2641,33.3242],[35.26385,33.3245],[35.2637,33.32463],[35.26358,33.32469],[35.26339,33.32473],[35.26318,33.32475],[35.263,33.32477],[35.26289,33.32476],[35.26281,33.32471],[35.26275,33.32463],[35.26271,33.32454],[35.26261,33.32429],[35.26253,33.32415],[35.2624,33.32406],[35.26221,33.32397],[35.26172,33.32384]]]}},{"type":"Feature","properties":{"name":"Litani River","name_ar":"نهر الليطاني","class":"river"},"geometry":{"type":"MultiLineString","coordinates":[[[35.2979,33.32359],[35.29751,33.32367],[35.29706,33.32377],[35.29641,33.3239],[35.29601,33.32398],[35.29585,33.32402],[35.29569,33.32408],[35.29528,33.32431],[35.29502,33.32443],[35.29475,33.32453],[35.29431,33.32465],[35.29422,33.32466],[35.29414,33.32468],[35.29397,33.32472],[35.29374,33.32474],[35.29355,33.32471],[35.29338,33.32467],[35.29322,33.32459],[35.29304,33.32446],[35.29273,33.32415],[35.29245,33.32386],[35.29222,33.32361],[35.29192,33.32324],[35.29183,33.32314],[35.29174,33.32299],[35.29166,33.32283],[35.29152,33.32253],[35.2913,33.32206],[35.29111,33.32164],[35.29096,33.32136],[35.29072,33.32104],[35.29055,33.32086],[35.29029,33.32066],[35.28979,33.3204],[35.28951,33.32032],[35.28875,33.32017],[35.2884,33.32008],[35.28791,33.32],[35.28756,33.31998],[35.28733,33.32002],[35.28715,33.32015],[35.28702,33.32034],[35.28691,33.32054],[35.2868,33.32089],[35.28667,33.32147],[35.28661,33.32177],[35.28663,33.32217],[35.28672,33.32252],[35.28671,33.32261],[35.28664,33.3227],[35.28647,33.32281],[35.28629,33.32291],[35.28614,33.323],[35.28581,33.32317],[35.28553,33.32331],[35.28505,33.32353],[35.28452,33.32379],[35.28416,33.32392],[35.28362,33.32405],[35.28315,33.32411],[35.2828,33.32411],[35.28266,33.32409],[35.28254,33.32407],[35.28213,33.32383],[35.28201,33.32378],[35.28189,33.32375],[35.28176,33.32372],[35.28163,33.32371],[35.28146,33.32372],[35.28125,33.32372],[35.28089,33.32372],[35.28067,33.32372],[35.27996,33.32361],[35.27965,33.32358],[35.27934,33.32357],[35.27892,33.3236],[35.27845,33.32367],[35.27725,33.3239],[35.27663,33.32406],[35.27633,33.32412],[35.27602,33.32416],[35.27567,33.3242],[35.27535,33.32421],[35.27508,33.32421],[35.27496,33.3242],[35.27483,33.32418],[35.27469,33.32414],[35.27461,33.32408],[35.27455,33.32401],[35.27396,33.32321],[35.27377,33.323],[35.2736,33.32283],[35.27345,33.32271]]]}},{"type":"Feature","properties":{"name":"Litani River","name_ar":"نهر الليطاني","class":"river"},"geometry":{"type":"MultiLineString","coordinates":[[[35.26172,33.32384],[35.26152,33.32384],[35.26142,33.32386],[35.26132,33.32394],[35.26107,33.32418],[35.26077,33.32443],[35.26069,33.32453],[35.26063,33.32464],[35.26055,33.32505],[35.2605,33.3252],[35.26044,33.32531],[35.26037,33.32542],[35.26026,33.32556],[35.25973,33.32609],[35.25938,33.32646],[35.25892,33.32681],[35.25859,33.32706],[35.25847,33.32719],[35.2584,33.32732],[35.25839,33.32747],[35.25843,33.32759],[35.25853,33.32773],[35.25872,33.3279],[35.25969,33.32865],[35.25987,33.32883],[35.26,33.32898],[35.26006,33.32908],[35.26007,33.32913],[35.26006,33.32918],[35.26002,33.32925],[35.25988,33.3295],[35.25975,33.32966],[35.25965,33.32975],[35.25954,33.3298],[35.25941,33.32984],[35.25922,33.32987],[35.259,33.32989],[35.2587,33.32991],[35.2585,33.32993],[35.25825,33.33],[35.25793,33.33013],[35.25779,33.33019],[35.25766,33.33027],[35.25757,33.33036],[35.25752,33.33041],[35.25746,33.3305],[35.25736,33.3307],[35.25728,33.33083],[35.25719,33.33094],[35.25707,33.33103],[35.25694,33.33111],[35.25686,33.33115],[35.25673,33.33118],[35.25647,33.33121],[35.25627,33.33122],[35.25605,33.33121],[35.2559,33.3312],[35.25576,33.33117],[35.25547,33.33107],[35.25515,33.33096],[35.255,33.33094],[35.25488,33.33094],[35.25476,33.33097],[35.25452,33.33108],[35.25426,33.33123],[35.25414,33.33134],[35.25405,33.33143],[35.25402,33.33147],[35.254,33.33154],[35.25399,33.33217],[35.25401,33.33225],[35.25404,33.33232],[35.2541,33.33239],[35.25418,33.33243],[35.25442,33.3325],[35.25453,33.33255],[35.25462,33.33261],[35.2547,33.33269],[35.25476,33.33281],[35.25509,33.33336],[35.25522,33.33355],[35.25528,33.33369],[35.25528,33.33379],[35.25527,33.33391],[35.25523,33.33403],[35.25505,33.33444],[35.25495,33.33459],[35.2548,33.33472],[35.25466,33.33482],[35.25426,33.33505],[35.254,33.3352],[35.25365,33.33538],[35.2532,33.33558],[35.2529,33.3357],[35.25242,33.33591],[35.25228,33.336],[35.2522,33.33606],[35.25218,33.33613],[35.25218,33.33621],[35.25221,33.33632],[35.25233,33.3366],[35.25238,33.33668],[35.25247,33.33679],[35.25258,33.33687],[35.25272,33.33695],[35.25326,33.33717],[35.25422,33.33756],[35.2543,33.33759],[35.25439,33.33761],[35.25458,33.33759],[35.2547,33.33755],[35.25516,33.33734],[35.25537,33.3372],[35.25561,33.33702],[35.25588,33.33686],[35.25612,33.33672],[35.25636,33.33663],[35.25657,33.33657],[35.25683,33.33653],[35.25697,33.33652],[35.25712,33.33657],[35.25723,33.33665],[35.25728,33.33676],[35.25733,33.33696],[35.25736,33.33716],[35.25736,33.33737],[35.25735,33.33749],[35.2573,33.33763],[35.25721,33.33783],[35.2571,33.33803],[35.25705,33.33807],[35.257,33.3381],[35.25692,33.33811],[35.25681,33.33812],[35.25647,33.33809],[35.25624,33.33809],[35.2561,33.3381],[35.25581,33.33815],[35.25516,33.33827],[35.25484,33.33834],[35.25459,33.33842],[35.25439,33.33851],[35.25361,33.33891],[35.25331,33.33906],[35.25294,33.33919],[35.25179,33.33951],[35.25131,33.33964],[35.25096,33.3397],[35.25059,33.33971],[35.25028,33.33967],[35.25007,33.33963],[35.24986,33.33955],[35.24959,33.33941],[35.24892,33.33899],[35.24844,33.33873],[35.24824,33.33866],[35.24798,33.33861],[35.24775,33.33862],[35.2474,33.33872],[35.24684,33.33886],[35.24657,33.33891],[35.2463,33.33894],[35.24604,33.33892],[35.24576,33.33887],[35.24541,33.33879],[35.24514,33.33873],[35.24439,33.3388]]]}},{"type":"Feature","properties":{"name":"Zahrani River","name_ar":"نهر الزهراني","class":"stream"},"geometry":{"type":"MultiLineString","coordinates":[[[35.342,33.49285],[35.34164,33.49294]]]}},{"type":"Feature","properties":{"name":"Zahrani River","name_ar":"نهر الزهراني","class":"stream"},"geometry":{"type":"MultiLineString","coordinates":[[[35.34164,33.49294],[35.3408,33.49305],[35.34046,33.49301],[35.34,33.49293],[35.33976,33.49291],[35.33937,33.49304],[35.3392,33.49317],[35.33892,33.49331],[35.33861,33.49341],[35.33845,33.49345],[35.33834,33.49351],[35.33831,33.49361],[35.3383,33.49377],[35.33828,33.4939],[35.33804,33.49397],[35.33743,33.49392],[35.33709,33.49395],[35.33672,33.49413],[35.3366,33.49418],[35.33641,33.49431],[35.33622,33.49443],[35.336,33.49468],[35.33596,33.49469],[35.33577,33.49474],[35.33537,33.49487],[35.33516,33.49494],[35.33506,33.49501],[35.33485,33.4952],[35.3346,33.49532]]]}},{"type":"Feature","properties":{"name":"Zahrani River","name_ar":"نهر الزهراني","class":"stream"},"geometry":{"type":"MultiLineString","coordinates":[[[35.45559,33.44333],[35.45512,33.44322],[35.45432,33.44287],[35.45366,33.44279],[35.45307,33.44291],[35.45229,33.44309],[35.45168,33.44306],[35.45014,33.44292],[35.44878,33.44299],[35.44766,33.44343],[35.44699,33.44395],[35.44644,33.44473],[35.44613,33.44499],[35.44564,33.44522],[35.44518,33.44527],[35.44466,33.44489],[35.44437,33.44447],[35.4439,33.44361],[35.44325,33.44329],[35.44253,33.44322],[35.44172,33.44328],[35.44059,33.44356],[35.4398,33.44355],[35.43877,33.4433],[35.43809,33.44317],[35.43758,33.44341],[35.43742,33.4438],[35.43754,33.44449],[35.43787,33.44507],[35.43797,33.44554],[35.43772,33.4459],[35.43736,33.44596],[35.43687,33.44589],[35.43654,33.44547],[35.43598,33.44431],[35.4355,33.44374],[35.43507,33.44364],[35.43463,33.44401]]]}},{"type":"Feature","properties":{"name":"Zahrani River","name_ar":"نهر الزهراني","class":"stream"},"geometry":{"type":"MultiLineString","coordinates":[[[35.43463,33.44401],[35.43405,33.44453],[35.43309,33.44492],[35.43217,33.44541],[35.43133,33.44598],[35.43092,33.44644],[35.4305,33.44714],[35.42981,33.44833],[35.42933,33.44858],[35.42888,33.44865],[35.42837,33.44856],[35.42785,33.44853],[35.4272,33.4487],[35.42683,33.44902],[35.42672,33.44919],[35.42638,33.44944],[35.42592,33.44964],[35.4255,33.44958],[35.4253,33.44936],[35.42517,33.44922],[35.42499,33.44915],[35.42468,33.44917],[35.42385,33.44902],[35.42379,33.44898],[35.42359,33.44866],[35.42329,33.44836],[35.42297,33.44818],[35.42248,33.44835],[35.42222,33.44845],[35.42177,33.4489],[35.42108,33.44933],[35.4204,33.44964],[35.41989,33.44974],[35.41941,33.44976]]]}},{"type":"Feature","properties":{"name":"Zahrani River","name_ar":"نهر الزهراني","class":"stream"},"geometry":{"type":"MultiLineString","coordinates":[[[35.39973,33.46075],[35.39954,33.46107],[35.39956,33.46122],[35.39974,33.46135],[35.40038,33.46168],[35.40111,33.46212],[35.40149,33.46245],[35.40179,33.46277],[35.40184,33.46301],[35.40178,33.4632],[35.40168,33.46342],[35.4015,33.46369],[35.40125,33.46399],[35.40117,33.4644],[35.40121,33.46479],[35.4013,33.46519],[35.4014,33.46546],[35.40142,33.46583],[35.40159,33.46603],[35.40159,33.4663],[35.40146,33.46646],[35.40109,33.46667],[35.4007,33.46676],[35.40017,33.46688],[35.39991,33.46701],[35.39965,33.46719],[35.39881,33.46772],[35.39841,33.46795],[35.39795,33.46811],[35.3976,33.4681],[35.39714,33.46793],[35.39627,33.46773],[35.39586,33.46772],[35.39514,33.46784],[35.39417,33.46807],[35.39335,33.46825],[35.3926,33.46841],[35.39148,33.46895],[35.39055,33.46951],[35.39032,33.46967],[35.39018,33.46986],[35.38989,33.47035],[35.38975,33.47061],[35.38976,33.4709],[35.38985,33.47113],[35.38997,33.47122],[35.39026,33.47136],[35.39049,33.47137],[35.39105,33.47139],[35.39147,33.47145],[35.39177,33.47153],[35.39205,33.47164],[35.39221,33.4718],[35.39226,33.47194],[35.39231,33.47223]]]}},{"type":"Feature","properties":{"name":"Zahrani River","name_ar":"نهر الزهراني","class":"stream"},"geometry":{"type":"MultiLineString","coordinates":[[[35.39231,33.47223],[35.39224,33.47234],[35.39217,33.4724],[35.39196,33.47255],[35.39184,33.47276],[35.39174,33.47298],[35.39165,33.47342],[35.39153,33.47367],[35.39117,33.47404],[35.39086,33.47428],[35.39059,33.47431],[35.3901,33.47429],[35.38946,33.47406],[35.38888,33.4738],[35.3885,33.47375],[35.38821,33.47384],[35.38796,33.47398],[35.38773,33.47422],[35.38758,33.47451],[35.38758,33.47486],[35.38759,33.47508],[35.38754,33.47535],[35.38743,33.47557],[35.38718,33.47568],[35.38679,33.47575],[35.3866,33.47585],[35.38653,33.47594],[35.38664,33.4761],[35.38672,33.47633],[35.38665,33.47645],[35.38648,33.47651],[35.38606,33.47667],[35.38586,33.47681],[35.38581,33.47695],[35.38553,33.47727],[35.38513,33.47756],[35.38489,33.47758],[35.38469,33.47752],[35.38445,33.47732],[35.38438,33.47695],[35.38408,33.47685],[35.38375,33.47685],[35.38338,33.4771],[35.38305,33.47739],[35.38269,33.47751],[35.38233,33.47755],[35.38187,33.47735],[35.38159,33.47719],[35.38147,33.47726],[35.38143,33.4774],[35.38144,33.47767],[35.38148,33.47796],[35.38161,33.47839],[35.38159,33.47859],[35.38154,33.47878],[35.38145,33.47893],[35.38135,33.47903],[35.38108,33.4791],[35.3809,33.4791],[35.38071,33.47903],[35.38053,33.47885],[35.38044,33.47857],[35.3803,33.47848],[35.3801,33.47851],[35.37995,33.47847],[35.37968,33.47825],[35.37936,33.47822],[35.37922,33.47826],[35.37889,33.4785],[35.37863,33.47862],[35.37849,33.47861],[35.3783,33.47856],[35.37815,33.47847],[35.37813,33.47833],[35.37824,33.47816],[35.37852,33.47769],[35.37884,33.47711],[35.37893,33.4769],[35.37892,33.47674],[35.37877,33.47665],[35.37853,33.4766],[35.37836,33.47666],[35.37812,33.47682],[35.37774,33.477],[35.37739,33.4771],[35.37716,33.4771],[35.3767,33.47716],[35.37624,33.47722],[35.37602,33.47717],[35.37569,33.47705],[35.37523,33.47673],[35.37478,33.47651],[35.37437,33.47645],[35.37417,33.47647],[35.37402,33.47653],[35.37395,33.47667],[35.3739,33.47685],[35.37368,33.47699],[35.3734,33.47699],[35.3732,33.47712],[35.37295,33.47732],[35.3728,33.47753],[35.37271,33.47769],[35.37274,33.47785],[35.37275,33.47806],[35.37266,33.47814],[35.37246,33.47821],[35.37222,33.47811],[35.37161,33.47791],[35.37123,33.47792],[35.37083,33.4783],[35.37052,33.47862],[35.37024,33.47868],[35.36999,33.47863],[35.36957,33.47832],[35.36938,33.47824],[35.36924,33.47831],[35.36918,33.47843],[35.3692,33.47858],[35.36926,33.47879],[35.36934,33.47921],[35.3693,33.47948],[35.36897,33.4798],[35.36849,33.48039],[35.36802,33.48096],[35.36763,33.48109],[35.3673,33.48109],[35.367,33.48095],[35.36676,33.48072],[35.36626,33.48062],[35.3656,33.48068],[35.36495,33.48068],[35.36457,33.4807],[35.36442,33.4808],[35.36397,33.48136],[35.36355,33.48185],[35.36305,33.48242],[35.36254,33.48288],[35.36206,33.48317],[35.3614,33.48333],[35.36088,33.48349],[35.36033,33.48349],[35.36005,33.4835],[35.3596,33.48362],[35.35898,33.48376],[35.35827,33.48384],[35.35778,33.48401],[35.35742,33.48432],[35.35685,33.48467],[35.35601,33.4847],[35.35525,33.4847],[35.35465,33.48483],[35.35353,33.48525],[35.35251,33.48554],[35.35235,33.4856],[35.35114,33.48557],[35.35051,33.48562],[35.34996,33.48586],[35.34972,33.48611],[35.34942,33.48629],[35.34924,33.48653],[35.34877,33.48704],[35.3479,33.48785],[35.34745,33.48826],[35.34724,33.48849],[35.34688,33.48885],[35.34683,33.48922],[35.34687,33.48946],[35.34695,33.48975],[35.34696,33.48986],[35.34686,33.48996],[35.34668,33.48994],[35.34637,33.48997],[35.34578,33.49],[35.34508,33.49015],[35.3448,33.49043],[35.34454,33.49066],[35.34447,33.49094],[35.3445,33.4914],[35.34454,33.49169],[35.34428,33.49185],[35.34358,33.49225],[35.34329,33.49239],[35.342,33.49285]]]}},{"type":"Feature","properties":{"name":"Zahrani River","name_ar":"نهر الزهراني","class":"stream"},"geometry":{"type":"MultiLineString","coordinates":[[[35.40136,33.4574],[35.40124,33.45795],[35.40121,33.45819],[35.40135,33.45854],[35.40157,33.45891],[35.4018,33.45924],[35.40181,33.45945],[35.4017,33.4596],[35.40139,33.45973],[35.40075,33.45987],[35.40031,33.46005],[35.39996,33.46023],[35.39984,33.46044],[35.39973,33.46075]]]}},{"type":"Feature","properties":{"name":"Zahrani River","name_ar":"نهر الزهراني","class":"stream"},"geometry":{"type":"MultiLineString","coordinates":[[[35.41941,33.44976],[35.41864,33.44976],[35.41761,33.44982],[35.41705,33.4499],[35.41636,33.44998],[35.41564,33.4502],[35.41499,33.45046],[35.4143,33.45103],[35.41385,33.45145],[35.41354,33.45166],[35.41289,33.45205],[35.41264,33.45251],[35.4123,33.45307],[35.4121,33.45334],[35.41178,33.45361],[35.41147,33.45386],[35.41111,33.454],[35.41082,33.45392],[35.40998,33.45385],[35.40915,33.45392],[35.40848,33.45406],[35.40777,33.45425],[35.40708,33.45438],[35.4064,33.45451],[35.40552,33.45491],[35.4049,33.45511],[35.40436,33.45521],[35.40362,33.45561],[35.40287,33.45599],[35.40216,33.45655],[35.4017,33.45695],[35.40136,33.4574]]]}},{"type":"Feature","properties":{"name":"Zahrani River","name_ar":"نهر الزهراني","class":"stream"},"geometry":{"type":"MultiLineString","coordinates":[[[35.46994,33.43751],[35.46925,33.43789],[35.46895,33.43808],[35.46885,33.43832],[35.46844,33.43915],[35.46819,33.43966],[35.46792,33.43994],[35.46768,33.43996],[35.46724,33.4399],[35.46677,33.43962],[35.46614,33.43931],[35.4654,33.43932],[35.46427,33.43969],[35.46348,33.44004],[35.46268,33.44044],[35.46203,33.44124],[35.46183,33.44143],[35.46096,33.44182],[35.46011,33.44232],[35.45924,33.44282],[35.45855,33.44311],[35.45797,33.44306],[35.45695,33.4429],[35.45612,33.44321],[35.45559,33.44333]]]}},{"type":"Feature","properties":{"name":"Zahrani River","name_ar":"نهر الزهراني","class":"stream"},"geometry":{"type":"MultiLineString","coordinates":[[[35.4886,33.42516],[35.48827,33.42532],[35.48773,33.42545],[35.48756,33.42561],[35.48753,33.42582],[35.48753,33.42612],[35.48755,33.42643],[35.48765,33.42667],[35.48785,33.42696],[35.48801,33.42723],[35.48805,33.4274],[35.48806,33.4276],[35.48782,33.42776],[35.48763,33.42798],[35.48741,33.42815],[35.48704,33.42844],[35.48683,33.42871],[35.4868,33.42896],[35.48681,33.42927],[35.48675,33.42956],[35.48667,33.42989],[35.48651,33.43023],[35.48603,33.43075],[35.48548,33.43136],[35.48502,33.4318],[35.4847,33.43207],[35.4843,33.43227],[35.48381,33.43255],[35.48322,33.4329],[35.48255,33.4331],[35.48214,33.43314],[35.48178,33.43325],[35.48143,33.4335],[35.48143,33.43387],[35.4814,33.43412],[35.48127,33.43429],[35.48111,33.43449],[35.48101,33.4346],[35.48076,33.43474],[35.4806,33.43476],[35.48041,33.43474],[35.48011,33.43462],[35.47989,33.43461],[35.47969,33.43466],[35.47928,33.43473],[35.47906,33.43468],[35.47882,33.43458],[35.47854,33.4345],[35.47824,33.43452],[35.47795,33.43463],[35.4774,33.43483],[35.47698,33.43488],[35.47645,33.43503],[35.47626,33.43518],[35.47613,33.4355],[35.47601,33.43596],[35.47587,33.43616],[35.47573,33.43622],[35.47553,33.43625],[35.47517,33.4363],[35.47472,33.43642]]]}},{"type":"Feature","properties":{"name":"Zahrani River","name_ar":"نهر الزهراني","class":"stream"},"geometry":{"type":"MultiLineString","coordinates":[[[35.47472,33.43642],[35.47409,33.43662],[35.47334,33.43711],[35.47268,33.43727],[35.47149,33.43743],[35.47076,33.4374],[35.46994,33.43751]]]}},{"type":"Feature","properties":{"name":"Zahrani River","name_ar":"نهر الزهراني","class":"stream"},"geometry":{"type":"MultiLineString","coordinates":[[[35.4887,33.42118],[35.48848,33.42146],[35.48844,33.42181],[35.48839,33.42239],[35.48845,33.42283],[35.48863,33.4235],[35.48881,33.42425],[35.48884,33.4246],[35.48883,33.4249],[35.4886,33.42516]]]}},{"type":"Feature","properties":{"name":"Zahrani River","name_ar":"نهر الزهراني","class":"stream"},"geometry":{"type":"MultiLineString","coordinates":[[[35.51008,33.40874],[35.50971,33.40891],[35.50924,33.40933],[35.50877,33.4098],[35.50845,33.41004],[35.50811,33.4102],[35.5076,33.41052],[35.50728,33.41081],[35.50671,33.41127],[35.50629,33.41143],[35.50583,33.4115],[35.50521,33.41148],[35.50462,33.41139],[35.50393,33.41138],[35.50355,33.41148],[35.50293,33.4116],[35.5026,33.41174],[35.50233,33.41197],[35.50193,33.41248],[35.5016,33.41286],[35.50136,33.41322],[35.50104,33.41359],[35.50074,33.4138],[35.50038,33.41425],[35.49991,33.41487],[35.49967,33.41513],[35.49965,33.41533],[35.4995,33.41566],[35.49931,33.41591],[35.49909,33.4163],[35.49898,33.41669],[35.49888,33.41707],[35.49884,33.41731],[35.49883,33.41761],[35.49883,33.41782],[35.49878,33.41816],[35.49873,33.41826]]]}},{"type":"Feature","properties":{"name":"Zahrani River","name_ar":"نهر الزهراني","class":"stream"},"geometry":{"type":"MultiLineString","coordinates":[[[35.49873,33.41826],[35.49861,33.41837],[35.4984,33.41843],[35.49792,33.41854],[35.49748,33.41859],[35.49724,33.41856],[35.49686,33.41827],[35.49652,33.41806],[35.49614,33.41777],[35.49579,33.41764],[35.49545,33.41763],[35.49501,33.41762],[35.49458,33.41775],[35.49411,33.41796],[35.49356,33.4183],[35.4933,33.41854],[35.49302,33.41878],[35.49286,33.41919],[35.49267,33.41954],[35.49239,33.41995],[35.49224,33.42012],[35.49194,33.42029],[35.49162,33.42047],[35.49111,33.42059],[35.49076,33.42066],[35.49004,33.42082],[35.48934,33.42091],[35.48894,33.42105],[35.4887,33.42118]]]}},{"type":"Feature","properties":{"name":"Zahrani River","name_ar":"نهر الزهراني","class":"stream"},"geometry":{"type":"MultiLineString","coordinates":[[[35.51809,33.42505],[35.51815,33.42465],[35.51824,33.42436],[35.51846,33.42381],[35.51834,33.42359],[35.51806,33.42299],[35.51782,33.42229],[35.51788,33.42207],[35.51809,33.42179],[35.51815,33.42159],[35.51805,33.42138],[35.51773,33.42102],[35.51771,33.42071],[35.51775,33.42045],[35.51791,33.42007],[35.51817,33.41965],[35.5183,33.41928],[35.5185,33.41877],[35.51848,33.41823],[35.51848,33.41789],[35.51839,33.41758],[35.51838,33.41735],[35.5184,33.41709],[35.51837,33.4167],[35.51848,33.41643],[35.51869,33.416],[35.51876,33.41539],[35.51852,33.41511],[35.51795,33.41469],[35.51786,33.41434],[35.51758,33.41367],[35.51741,33.41331],[35.51723,33.41309],[35.51707,33.41284],[35.51684,33.41268],[35.51686,33.41252],[35.51683,33.41224],[35.5167,33.41194],[35.51669,33.41172],[35.51658,33.41126],[35.51631,33.41106],[35.51585,33.41092],[35.5153,33.41083],[35.51453,33.4108],[35.51393,33.41065],[35.51321,33.41043],[35.51295,33.41025],[35.51228,33.40966],[35.5119,33.40951],[35.51138,33.40911],[35.51097,33.40884],[35.51074,33.40871],[35.51046,33.4087],[35.51008,33.40874]]]}},{"type":"Feature","properties":{"name":"Zahrani River","name_ar":"نهر الزهراني","class":"stream"},"geometry":{"type":"MultiLineString","coordinates":[[[35.55618,33.46553],[35.55579,33.46527],[35.55572,33.4649],[35.55584,33.4642],[35.5558,33.46384],[35.55521,33.46331],[35.55526,33.4631],[35.55526,33.46259],[35.55499,33.4624],[35.55468,33.46205],[35.55442,33.46166],[35.55398,33.46143],[35.55376,33.46124],[35.55356,33.46078],[35.55329,33.46011],[35.55295,33.45979],[35.55262,33.45988],[35.55156,33.46019],[35.55081,33.46043],[35.54951,33.46084],[35.54869,33.46095],[35.54808,33.46089],[35.5472,33.46092],[35.54643,33.46084],[35.54577,33.46087],[35.54502,33.4608],[35.54447,33.46072],[35.54388,33.46037],[35.54325,33.46024],[35.54277,33.46021],[35.54231,33.45998],[35.54145,33.45957],[35.54103,33.45948],[35.54072,33.45918],[35.54013,33.45876],[35.53973,33.45833],[35.53929,33.45774],[35.53892,33.45749],[35.53872,33.45732],[35.53855,33.45693],[35.53812,33.45643],[35.53783,33.45591],[35.53751,33.45536],[35.53674,33.45461],[35.53635,33.45458],[35.53579,33.45459],[35.53533,33.45442],[35.53496,33.45418],[35.53442,33.45412],[35.53407,33.45409],[35.53379,33.45408],[35.53346,33.45401],[35.5334,33.45391],[35.53312,33.45331],[35.53278,33.4529],[35.53272,33.45283],[35.53252,33.45263],[35.53218,33.45234],[35.53161,33.45206],[35.5314,33.45196],[35.53105,33.45175],[35.5309,33.45143],[35.53089,33.45122],[35.53117,33.45096],[35.53117,33.45077],[35.53091,33.45039],[35.53057,33.45013],[35.53038,33.44992],[35.53034,33.44967],[35.53038,33.44943],[35.5304,33.4492],[35.52951,33.44877],[35.52902,33.44864],[35.52881,33.44826],[35.5283,33.44789],[35.52787,33.44758],[35.52754,33.44735],[35.52747,33.44708],[35.52735,33.44656],[35.52717,33.44599],[35.527,33.44576],[35.5267,33.44547],[35.52666,33.44518],[35.52656,33.44491],[35.52622,33.44482],[35.52607,33.44451],[35.52587,33.44404],[35.52558,33.44368],[35.52528,33.44319],[35.52499,33.44288],[35.5247,33.44264],[35.52444,33.44247],[35.5241,33.44238],[35.52367,33.44232],[35.52344,33.44205],[35.52318,33.44182],[35.52316,33.44162],[35.52315,33.4413],[35.52298,33.44108],[35.52286,33.44066],[35.52264,33.44037],[35.52237,33.44014],[35.52218,33.44012],[35.52193,33.43998],[35.52187,33.43972],[35.52157,33.43955],[35.52125,33.43945],[35.5206,33.43922],[35.51995,33.4387],[35.51946,33.4384],[35.51902,33.43808],[35.51881,33.43767],[35.51865,33.43668],[35.5185,33.4362],[35.51831,33.43586],[35.51811,33.43547],[35.51787,33.4352],[35.51781,33.43489],[35.51775,33.43464],[35.5177,33.43406],[35.51752,33.43367],[35.51761,33.43335],[35.51738,33.43272],[35.51697,33.43241],[35.51673,33.43197],[35.5168,33.43172],[35.51709,33.43117],[35.5175,33.43041],[35.51777,33.42979],[35.51784,33.42923],[35.51784,33.4288],[35.51788,33.42842],[35.51809,33.42815],[35.51821,33.42789],[35.51823,33.42759],[35.51831,33.42709],[35.51854,33.42681],[35.51861,33.42649],[35.51858,33.42614],[35.51816,33.42541],[35.51809,33.42505]]]}},{"type":"Feature","properties":{"name":"Litani River","name_ar":"نهر الليطاني","class":"river"},"geometry":{"type":"MultiLineString","coordinates":[[[35.65591,33.49009],[35.65585,33.48989],[35.65582,33.48978],[35.65582,33.48971],[35.65585,33.48961],[35.6559,33.48954],[35.65598,33.4894],[35.6562,33.48897],[35.6563,33.48868],[35.65633,33.4886],[35.65638,33.48853],[35.65645,33.48849],[35.65661,33.48842],[35.65696,33.48827],[35.65702,33.48824],[35.65708,33.4882],[35.6572,33.48812],[35.6573,33.48804],[35.65744,33.48795],[35.65765,33.48784],[35.65782,33.48777],[35.65795,33.4877],[35.65868,33.48734],[35.65886,33.48726],[35.65894,33.48721],[35.65901,33.48716],[35.65915,33.48705],[35.65923,33.48697],[35.6593,33.48687],[35.65932,33.48683],[35.65933,33.48678],[35.65934,33.48671],[35.65934,33.48658],[35.65935,33.48653],[35.65936,33.4865],[35.65939,33.48647],[35.65943,33.48644],[35.65949,33.4864],[35.65954,33.48636],[35.65956,33.48633],[35.65958,33.48629],[35.65962,33.486],[35.65965,33.48552],[35.65964,33.48517],[35.65961,33.48495],[35.65956,33.48467],[35.65956,33.4844],[35.65956,33.48429],[35.65959,33.48416],[35.65963,33.48404],[35.65969,33.48395],[35.65976,33.48388],[35.65985,33.48381],[35.66002,33.4837],[35.66014,33.48364],[35.6602,33.4836],[35.66024,33.48355],[35.6603,33.4835],[35.6604,33.48335],[35.66045,33.48328],[35.66056,33.48318],[35.66067,33.48308],[35.66078,33.48297],[35.66096,33.48283],[35.66112,33.48272],[35.66135,33.48259],[35.66173,33.48239],[35.66243,33.48204],[35.66292,33.4818],[35.66309,33.48172],[35.66322,33.48167],[35.6634,33.48162],[35.66362,33.48158],[35.66366,33.48156],[35.66369,33.48154],[35.66371,33.48151],[35.66371,33.48146],[35.66368,33.48142],[35.66363,33.48135],[35.66358,33.48128],[35.66357,33.48124],[35.66357,33.48119],[35.66359,33.48113],[35.66377,33.48092],[35.66383,33.48083],[35.66385,33.4807],[35.66384,33.4806],[35.66381,33.48043],[35.66377,33.48031],[35.66374,33.48021],[35.66369,33.48013],[35.66362,33.48004],[35.66354,33.47995],[35.66344,33.47987],[35.66327,33.47971],[35.66319,33.4796],[35.6631,33.47945],[35.66291,33.4791],[35.66285,33.47897],[35.66282,33.47888],[35.66278,33.47871],[35.66277,33.47858],[35.66277,33.47849],[35.6628,33.47835],[35.66284,33.47826],[35.66291,33.47818],[35.66301,33.47812],[35.66314,33.47806],[35.66342,33.47798],[35.66373,33.47789],[35.6642,33.47773],[35.6644,33.47765],[35.66453,33.47759],[35.66462,33.47754],[35.66469,33.47748],[35.6648,33.47738],[35.66494,33.47727],[35.66523,33.47706],[35.6657,33.47674],[35.66643,33.4762],[35.66679,33.47593],[35.66699,33.47577],[35.6671,33.47566],[35.66717,33.47555],[35.66721,33.47544],[35.66721,33.47533],[35.66719,33.47522],[35.66713,33.47502],[35.66704,33.47484],[35.66692,33.47461],[35.66675,33.47437],[35.66654,33.4741],[35.66636,33.47386],[35.66619,33.47368],[35.66599,33.4735],[35.66577,33.47331],[35.66542,33.47303],[35.66517,33.47277],[35.66505,33.47261],[35.66495,33.47246],[35.66483,33.47221],[35.66476,33.47206],[35.66472,33.47192],[35.6647,33.47174],[35.6647,33.47143],[35.66468,33.47122],[35.66463,33.47104],[35.66456,33.47089],[35.66443,33.47073],[35.66423,33.47056],[35.66401,33.4704],[35.66385,33.47027],[35.66376,33.47016],[35.66372,33.47009],[35.66372,33.46999],[35.66374,33.46986],[35.66388,33.46957],[35.6641,33.46913],[35.66421,33.4688],[35.6643,33.4684],[35.66446,33.46738],[35.66473,33.46635],[35.66478,33.46618],[35.66482,33.46593],[35.66484,33.46561],[35.66485,33.46532]]]}},{"type":"Feature","properties":{"name":"Litani River","name_ar":"نهر الليطاني","class":"river"},"geometry":{"type":"MultiLineString","coordinates":[[[35.66485,33.46532],[35.66482,33.46505],[35.66479,33.4649],[35.66474,33.46475],[35.66461,33.46451],[35.66443,33.46422],[35.66436,33.46408],[35.66432,33.46391],[35.6643,33.46376],[35.66432,33.46353],[35.66443,33.463],[35.66447,33.46273],[35.66447,33.46261],[35.66445,33.46247],[35.6644,33.46238],[35.66432,33.46224],[35.66421,33.46209],[35.66408,33.46191],[35.66395,33.46177],[35.66383,33.46167],[35.66345,33.46147],[35.66286,33.4612],[35.66237,33.46095],[35.66221,33.46084],[35.66203,33.46064],[35.66193,33.4605],[35.66187,33.4604],[35.66174,33.46011],[35.66163,33.45986],[35.66147,33.45959],[35.66138,33.45941],[35.66132,33.4592],[35.6613,33.45902],[35.66128,33.45882],[35.6613,33.45819],[35.6613,33.45786],[35.66127,33.45753],[35.66124,33.45736],[35.66118,33.45716],[35.66109,33.45696],[35.66097,33.45679],[35.66079,33.45662],[35.66045,33.45626],[35.66034,33.45613],[35.66027,33.45599],[35.66025,33.45584],[35.66022,33.4557],[35.66023,33.45554],[35.66028,33.45522],[35.66027,33.45504],[35.66018,33.45476],[35.66002,33.45444]]]}},{"type":"Feature","properties":{"name":"Litani River","name_ar":"نهر الليطاني","class":"river"},"geometry":{"type":"MultiLineString","coordinates":[[[35.66002,33.45444],[35.65994,33.45431],[35.65976,33.45412],[35.6595,33.45389],[35.65918,33.45363],[35.65899,33.45345],[35.65892,33.45334],[35.65888,33.45321],[35.65884,33.45301],[35.65881,33.45271],[35.65874,33.45228],[35.65865,33.45194],[35.65858,33.4517],[35.65848,33.45146],[35.65835,33.45128],[35.65816,33.45113],[35.65798,33.45104],[35.65777,33.45098],[35.65733,33.45093],[35.65715,33.45089],[35.65699,33.45083],[35.65685,33.45076],[35.65665,33.45062],[35.65628,33.45029],[35.6561,33.45009],[35.65574,33.44962],[35.65566,33.44944],[35.65563,33.44931],[35.6556,33.44905],[35.65563,33.44855],[35.6556,33.44827],[35.65555,33.44805],[35.65548,33.44781],[35.65541,33.44751],[35.65537,33.44727],[35.65536,33.44696],[35.65542,33.44646],[35.65541,33.44627],[35.65535,33.44607],[35.65523,33.44583],[35.65506,33.44544],[35.65499,33.44529],[35.65495,33.44522],[35.65484,33.44511],[35.65449,33.44486],[35.65427,33.44464],[35.65405,33.44439],[35.65383,33.44411],[35.65362,33.4438],[35.65352,33.44362],[35.65343,33.44343],[35.6534,33.44329],[35.65323,33.4423],[35.65317,33.44198],[35.6531,33.44173],[35.65298,33.44145],[35.65269,33.44098],[35.65248,33.44064],[35.65234,33.44046],[35.65217,33.44031],[35.65195,33.44017],[35.65168,33.44005],[35.65137,33.43994],[35.65116,33.43987],[35.65087,33.43978],[35.65061,33.43972],[35.64991,33.43958],[35.6497,33.43953],[35.64951,33.43946],[35.6493,33.43935],[35.64911,33.4392],[35.64878,33.4388],[35.64868,33.43861],[35.64858,33.43841],[35.64851,33.43823],[35.64843,33.43803],[35.64826,33.43779],[35.648,33.43749],[35.64783,33.43721],[35.64763,33.43686],[35.64742,33.43657],[35.64705,33.43615],[35.64681,33.43582],[35.64649,33.43535]]]}},{"type":"Feature","properties":{"name":"Litani River","name_ar":"نهر الليطاني","class":"river"},"geometry":{"type":"MultiLineString","coordinates":[[[35.64649,33.43535],[35.64629,33.43485],[35.64611,33.43446],[35.64603,33.43429],[35.64592,33.43414],[35.64581,33.43401],[35.64568,33.43391],[35.64525,33.43368],[35.64501,33.43356],[35.64475,33.43346],[35.6441,33.43326],[35.64391,33.4332],[35.64378,33.43316],[35.6437,33.43311],[35.64357,33.43304],[35.64346,33.43294],[35.64338,33.43285],[35.64329,33.43275],[35.64323,33.43269],[35.64312,33.43262],[35.64286,33.43247],[35.64278,33.43243],[35.6427,33.43237],[35.64242,33.43215],[35.64213,33.43193],[35.64187,33.43176],[35.64179,33.43172],[35.64172,33.43167],[35.64167,33.43161],[35.6416,33.4315],[35.64149,33.43141],[35.6414,33.43138],[35.6413,33.43137],[35.64119,33.43134],[35.64102,33.43123],[35.64087,33.43113],[35.64074,33.43105],[35.64045,33.43086],[35.6403,33.43074],[35.64016,33.43064],[35.64005,33.43053],[35.63994,33.43045],[35.6397,33.43032],[35.63959,33.43026],[35.63948,33.43016],[35.63938,33.43007],[35.63918,33.42995],[35.63891,33.42979],[35.63861,33.42965],[35.63832,33.42949],[35.63808,33.42934],[35.63798,33.42926],[35.63756,33.42895],[35.6373,33.42878],[35.63696,33.42862],[35.63657,33.42847],[35.63627,33.42838],[35.63584,33.42827],[35.63559,33.42822],[35.6354,33.42819],[35.63523,33.42819],[35.63501,33.42822],[35.63457,33.4283],[35.63436,33.42831],[35.63415,33.42831],[35.63388,33.42829],[35.63362,33.42826],[35.63275,33.4282],[35.63244,33.42815],[35.63211,33.42808],[35.63142,33.42782],[35.6313,33.42774],[35.63119,33.42759],[35.63115,33.42745],[35.63115,33.42733],[35.63119,33.42716],[35.63126,33.42695],[35.63133,33.42666],[35.63137,33.42644],[35.6314,33.42617],[35.63135,33.42572],[35.6313,33.42551],[35.63122,33.42536],[35.63108,33.42517],[35.63092,33.42497],[35.6308,33.42476],[35.63065,33.42454],[35.63047,33.42436],[35.63024,33.42421],[35.62989,33.42401],[35.62927,33.42369],[35.62738,33.42283],[35.62618,33.42221],[35.62563,33.4219],[35.62527,33.42167],[35.6249,33.42142],[35.62467,33.42122],[35.62446,33.42097],[35.62417,33.42059],[35.62406,33.4204],[35.62401,33.42023],[35.62397,33.42006],[35.62397,33.41981],[35.62398,33.41957],[35.62403,33.41937],[35.62416,33.41886],[35.6243,33.41857],[35.62437,33.41839],[35.62442,33.41813],[35.6244,33.41739],[35.62436,33.41694],[35.62432,33.41663],[35.62424,33.41634],[35.62415,33.41603],[35.62408,33.41565],[35.624,33.41505],[35.62394,33.41478],[35.62382,33.41446],[35.62352,33.41384],[35.62338,33.41347],[35.62319,33.41295],[35.623,33.41252],[35.62276,33.41221],[35.62262,33.41207],[35.62245,33.41203],[35.62228,33.41206],[35.62202,33.41217],[35.62163,33.41239],[35.62088,33.41307],[35.62049,33.41341],[35.62025,33.41358],[35.62001,33.41368],[35.61967,33.41377],[35.61925,33.41385],[35.61883,33.41399],[35.61862,33.41411],[35.61842,33.41428],[35.61831,33.41445],[35.618,33.41533],[35.6178,33.41589],[35.6177,33.41618],[35.61764,33.41627],[35.61753,33.41631],[35.61733,33.41634],[35.6168,33.4163],[35.61645,33.41625],[35.61617,33.41615],[35.61593,33.416],[35.61568,33.41585],[35.61542,33.41562],[35.61481,33.41489],[35.61462,33.41469],[35.61433,33.41449],[35.61407,33.41437],[35.61381,33.41429],[35.61318,33.41416],[35.61275,33.41407],[35.6118,33.41389],[35.61141,33.41381],[35.61118,33.41374],[35.61091,33.41362],[35.61064,33.41344],[35.61041,33.4132],[35.61022,33.41291],[35.60999,33.41247],[35.60965,33.41181],[35.60945,33.41144],[35.60927,33.41108],[35.6092,33.4109],[35.60914,33.41068],[35.6091,33.41045],[35.60906,33.40979],[35.60892,33.40889],[35.60875,33.4078],[35.60864,33.40716],[35.60851,33.40639],[35.60838,33.40591],[35.60827,33.40549],[35.60815,33.40507],[35.60799,33.40457],[35.6079,33.40432],[35.60778,33.40396],[35.6076,33.40353],[35.60748,33.40329],[35.60739,33.40316],[35.60728,33.40303],[35.60718,33.40294],[35.60676,33.40265],[35.6064,33.40241],[35.60561,33.40186],[35.60519,33.40158],[35.60476,33.4012],[35.60447,33.4009],[35.60387,33.40021],[35.60363,33.3999],[35.60349,33.39972],[35.60336,33.39948],[35.60326,33.39922],[35.60314,33.39889],[35.60298,33.39844],[35.60277,33.39791],[35.60243,33.3973],[35.60218,33.39691],[35.60209,33.39681],[35.60199,33.39673],[35.60193,33.3967],[35.60184,33.39669],[35.60167,33.39669],[35.60154,33.39668],[35.6014,33.39665],[35.60098,33.39654],[35.6008,33.3965],[35.6005,33.39643],[35.60032,33.39639],[35.59997,33.39637],[35.59932,33.39633],[35.5988,33.39626],[35.59841,33.39617],[35.59816,33.3961],[35.59774,33.39594],[35.59737,33.39581],[35.59701,33.39573]]]}},{"type":"Feature","properties":{"name":"Litani River","name_ar":"نهر الليطاني","class":"river"},"geometry":{"type":"MultiLineString","coordinates":[[[35.69234,33.5428],[35.69281,33.54196],[35.69296,33.54151],[35.69342,33.54095],[35.69366,33.54059],[35.69376,33.5403],[35.69383,33.54002],[35.69358,33.53963],[35.69324,33.53937],[35.69307,33.53896],[35.69264,33.53859],[35.69187,33.53798],[35.69163,33.53784],[35.69135,33.53768],[35.69098,33.53755],[35.69055,33.53748],[35.68996,33.53741],[35.68933,33.53737],[35.68916,33.53734],[35.68901,33.53728],[35.6889,33.53717],[35.68876,33.53699],[35.68866,33.53678],[35.68836,33.53577],[35.68821,33.53522],[35.68815,33.53505],[35.68807,33.53497],[35.688,33.53493],[35.68787,33.53489],[35.68779,33.53486],[35.68773,33.5348],[35.68759,33.53465],[35.68752,33.53453],[35.68744,33.53436],[35.68732,33.53399],[35.68714,33.53359],[35.68697,33.53304],[35.68694,33.53287],[35.68693,33.53267],[35.68692,33.53241],[35.68687,33.53221],[35.6868,33.53202],[35.68672,33.53191],[35.68664,33.53183],[35.68642,33.53168],[35.68632,33.53154],[35.68623,33.53138],[35.68612,33.53102],[35.68601,33.53052],[35.68599,33.53031],[35.68601,33.53017],[35.68608,33.53001],[35.68621,33.52986],[35.68638,33.52972],[35.68651,33.52965],[35.68665,33.52961],[35.68683,33.52963],[35.68702,33.52967],[35.68717,33.52974],[35.68733,33.5298],[35.6875,33.52986],[35.68762,33.52988],[35.68776,33.52989],[35.688,33.52987],[35.68827,33.52981],[35.68909,33.52955],[35.68963,33.52936],[35.68987,33.52924]]]}},{"type":"Feature","properties":{"name":"Litani River","name_ar":"نهر الليطاني","class":"river"},"geometry":{"type":"MultiLineString","coordinates":[[[35.69139,33.54705],[35.69135,33.54682],[35.69161,33.54588],[35.69203,33.54502]]]}},{"type":"Feature","properties":{"name":"Litani River","name_ar":"نهر الليطاني","class":"river"},"geometry":{"type":"MultiLineString","coordinates":[[[35.69203,33.54502],[35.6922,33.54437],[35.69224,33.54407],[35.69224,33.54375],[35.69224,33.54338],[35.69234,33.5428]]]}},{"type":"Feature","properties":{"name":"Litani River","name_ar":"نهر الليطاني","class":"river"},"geometry":{"type":"MultiLineString","coordinates":[[[35.69151,33.54796],[35.69143,33.54765],[35.69139,33.54705]]]}},{"type":"Feature","properties":{"name":"Litani River","name_ar":"نهر الليطاني","class":"river"},"geometry":{"type":"MultiLineString","coordinates":[[[35.68987,33.52924],[35.69003,33.52913],[35.69019,33.529],[35.69026,33.5289],[35.69033,33.52876],[35.6903,33.52854],[35.69022,33.5283],[35.69009,33.52798],[35.69005,33.52776],[35.69003,33.52762],[35.69004,33.52741],[35.69003,33.52721],[35.68999,33.52703],[35.68992,33.52685],[35.68983,33.52666],[35.68973,33.52651],[35.6896,33.52637],[35.68933,33.52613],[35.68906,33.52594],[35.68873,33.52574],[35.68824,33.52544],[35.68768,33.52508],[35.68748,33.52498],[35.68719,33.52489],[35.68683,33.5248],[35.68671,33.52474],[35.68656,33.52464],[35.68624,33.52432],[35.68605,33.52414],[35.68584,33.524],[35.68558,33.52389],[35.68541,33.52382],[35.68516,33.52372],[35.68437,33.52342],[35.68402,33.52328],[35.68361,33.52306],[35.68334,33.52288],[35.68313,33.52271],[35.68298,33.52254],[35.68287,33.5224],[35.68281,33.52225],[35.68275,33.52199],[35.6827,33.52186],[35.68261,33.52171],[35.68247,33.52152],[35.68239,33.52135],[35.68237,33.52117],[35.68235,33.52102],[35.68236,33.52069],[35.68239,33.52045],[35.68245,33.52022],[35.68251,33.51998],[35.68254,33.51984],[35.68253,33.51972],[35.68249,33.51953],[35.68244,33.51934],[35.68237,33.51906],[35.68233,33.51886],[35.68232,33.51871],[35.68233,33.51853],[35.68239,33.51823],[35.68249,33.51791],[35.68266,33.51747],[35.68294,33.51682],[35.68302,33.51661],[35.68311,33.51632],[35.68312,33.51623],[35.68311,33.51615],[35.68308,33.51609],[35.68301,33.516],[35.68284,33.51584],[35.68275,33.51578],[35.68267,33.51575],[35.68259,33.51572],[35.6825,33.5157],[35.68241,33.51568],[35.6823,33.51567],[35.68224,33.51566],[35.68218,33.51564],[35.68208,33.51561],[35.682,33.51559],[35.68191,33.51559],[35.6816,33.51559],[35.68149,33.51558],[35.68138,33.51555],[35.68128,33.51551],[35.6812,33.51546],[35.68094,33.51526],[35.68071,33.51513],[35.68055,33.51505],[35.68033,33.51497],[35.67991,33.51489],[35.67958,33.51483],[35.67942,33.51479],[35.67929,33.51475],[35.67919,33.5147],[35.67908,33.51462],[35.67903,33.51456],[35.67902,33.5145],[35.67903,33.5144],[35.67907,33.51422],[35.67916,33.51401],[35.67925,33.51373],[35.67941,33.51341],[35.67948,33.51324],[35.67956,33.51297],[35.67964,33.51268],[35.67967,33.51249],[35.67968,33.51223],[35.67968,33.51204],[35.67966,33.51187],[35.67961,33.5115],[35.67959,33.51111],[35.67958,33.51048],[35.67957,33.51003],[35.67956,33.5098],[35.67954,33.50968],[35.67948,33.50949],[35.67941,33.50933],[35.67928,33.50912],[35.67907,33.50891],[35.67887,33.50873],[35.67867,33.50855],[35.67845,33.50835],[35.67831,33.50825],[35.67815,33.50815],[35.67795,33.50808],[35.67776,33.50806],[35.67752,33.50804],[35.67727,33.50803],[35.67707,33.50802],[35.6769,33.50799],[35.67678,33.50794],[35.67667,33.50786],[35.67646,33.50766],[35.67631,33.5075],[35.67612,33.50728],[35.67575,33.50687],[35.67546,33.50649],[35.67501,33.50596],[35.67463,33.50559],[35.67442,33.50527],[35.67427,33.50503],[35.67415,33.50476],[35.67413,33.50463],[35.67412,33.50447],[35.67413,33.50428],[35.67411,33.50423],[35.67409,33.50416],[35.67403,33.50409],[35.67387,33.50397],[35.67367,33.50387],[35.67358,33.5038],[35.67351,33.50368],[35.67342,33.50354],[35.67335,33.50345],[35.67325,33.50336],[35.67311,33.50327],[35.67292,33.50318],[35.67246,33.50299],[35.67221,33.50286],[35.67203,33.50281],[35.67181,33.50277],[35.67151,33.50273],[35.67117,33.5027],[35.67106,33.50269],[35.67096,33.50267],[35.67087,33.50262],[35.67076,33.50254],[35.67062,33.50244],[35.67038,33.50229],[35.67003,33.50212],[35.66944,33.50191],[35.66887,33.50174],[35.66825,33.50158]]]}},{"type":"Feature","properties":{"name":"Litani River","name_ar":"نهر الليطاني","class":"river"},"geometry":{"type":"MultiLineString","coordinates":[[[35.66825,33.50158],[35.66783,33.5015],[35.66738,33.50142],[35.66693,33.50135],[35.66642,33.50125],[35.66623,33.50116],[35.66607,33.50105],[35.66568,33.50056],[35.66561,33.50039],[35.66557,33.50025],[35.66556,33.50006],[35.66558,33.49983],[35.66556,33.49969],[35.66548,33.49953],[35.66517,33.49904],[35.66506,33.4989],[35.6649,33.49872],[35.66468,33.49857],[35.66452,33.49848],[35.66423,33.49836],[35.66407,33.49828],[35.66381,33.49813],[35.6636,33.49796],[35.66332,33.49772],[35.66305,33.49749],[35.66287,33.49729],[35.66272,33.49709],[35.66264,33.49694],[35.66251,33.49669],[35.6624,33.49653],[35.66226,33.49638],[35.66206,33.4962],[35.66174,33.49595],[35.66143,33.49569],[35.66118,33.49549],[35.66102,33.49538],[35.66089,33.49533],[35.66066,33.49525],[35.66041,33.49512],[35.66031,33.49505],[35.66018,33.49494],[35.66008,33.49484],[35.65987,33.49461],[35.65967,33.49435],[35.65947,33.49405],[35.65931,33.4938],[35.65924,33.49372],[35.65917,33.49364],[35.65896,33.49348],[35.65881,33.49335],[35.65869,33.49324],[35.65861,33.49315],[35.65852,33.49304],[35.65839,33.49287],[35.65822,33.49265],[35.65811,33.49252],[35.65805,33.49245],[35.65794,33.49236],[35.65768,33.49213],[35.65746,33.49193],[35.65712,33.49157],[35.65634,33.49069],[35.65615,33.49048],[35.65602,33.49032],[35.65595,33.49021],[35.65591,33.49009]]]}},{"type":"Feature","properties":{"name":"Litani River","name_ar":"نهر الليطاني","class":"river"},"geometry":{"type":"MultiLineString","coordinates":[[[35.73245,33.61188],[35.73205,33.61223],[35.73155,33.61258],[35.7311,33.61275],[35.7308,33.6128],[35.73017,33.61283],[35.72952,33.61298],[35.72896,33.61323],[35.72847,33.61369],[35.72809,33.61424],[35.72754,33.61491],[35.72706,33.61515],[35.72672,33.61521],[35.72629,33.61512],[35.72585,33.61481],[35.72541,33.6143],[35.72482,33.61373],[35.72407,33.6135],[35.72323,33.61346],[35.72213,33.61363],[35.72136,33.61361],[35.71958,33.61314],[35.719,33.61321],[35.71852,33.61341],[35.71822,33.61403],[35.71808,33.61487],[35.71805,33.61527],[35.71797,33.61541],[35.71786,33.61552],[35.71767,33.61564]]]}},{"type":"Feature","properties":{"name":"Litani River","name_ar":"نهر الليطاني","class":"river"},"geometry":{"type":"MultiLineString","coordinates":[[[35.81154,33.66673],[35.81125,33.66626],[35.81094,33.6657],[35.81079,33.66534],[35.81074,33.66499],[35.8107,33.66437],[35.81062,33.66336],[35.81057,33.66307],[35.81051,33.6629],[35.81037,33.66268],[35.81021,33.66248],[35.81005,33.66234],[35.80985,33.66222],[35.80947,33.66204],[35.8087,33.66174],[35.80794,33.66145],[35.80757,33.66126],[35.80726,33.66104],[35.80687,33.66066],[35.80664,33.66047],[35.80639,33.66034],[35.80597,33.66014],[35.80534,33.65987],[35.80482,33.65962],[35.80437,33.65934],[35.80391,33.65898],[35.80345,33.6586],[35.8031,33.65837],[35.80287,33.65827],[35.80264,33.65824],[35.80241,33.65824],[35.80189,33.65832],[35.80133,33.65841],[35.80098,33.65842],[35.80038,33.65835],[35.80005,33.65828],[35.79982,33.65818],[35.79962,33.65805],[35.79867,33.65692],[35.79804,33.65612],[35.79771,33.65583]]]}},{"type":"Feature","properties":{"name":"Litani River","name_ar":"نهر الليطاني","class":"river"},"geometry":{"type":"MultiLineString","coordinates":[[[35.79771,33.65583],[35.79735,33.65558],[35.79667,33.65525],[35.79634,33.65499],[35.79613,33.65473],[35.79577,33.65408],[35.79539,33.6534],[35.79479,33.65257],[35.79261,33.64967],[35.79168,33.64853],[35.79138,33.64827],[35.791,33.64798],[35.78874,33.64658],[35.78685,33.64546],[35.78646,33.64533],[35.78617,33.64528],[35.78585,33.6453],[35.78545,33.6454],[35.78484,33.6456],[35.78434,33.64568],[35.78404,33.64567],[35.7837,33.6456],[35.78201,33.64499],[35.78159,33.64483],[35.78125,33.64461],[35.78115,33.64447],[35.78108,33.64423],[35.78116,33.64381],[35.78141,33.64314],[35.78145,33.64276],[35.78144,33.64238],[35.78137,33.64208],[35.7812,33.64162],[35.78101,33.64118],[35.78001,33.6395],[35.7796,33.63872],[35.77943,33.63838],[35.77912,33.6378],[35.77891,33.63744],[35.77878,33.63722],[35.77865,33.63709],[35.77852,33.63697],[35.77836,33.63687],[35.77812,33.63677],[35.77794,33.63669],[35.77752,33.63656],[35.7773,33.63653],[35.77699,33.63649],[35.77659,33.63647],[35.77614,33.63645],[35.77559,33.63646],[35.77518,33.6365]]]}},{"type":"Feature","properties":{"name":"Litani River","name_ar":"نهر الليطاني","class":"river"},"geometry":{"type":"MultiLineString","coordinates":[[[35.77518,33.6365],[35.77424,33.63657],[35.77392,33.63656],[35.77369,33.63654],[35.77343,33.63647],[35.77293,33.63629],[35.77244,33.63608],[35.77214,33.63591],[35.77193,33.63577],[35.77116,33.63521],[35.77099,33.63511],[35.77084,33.63506],[35.77059,33.63501],[35.77033,33.63499],[35.77015,33.63496],[35.76997,33.6349],[35.76956,33.63462],[35.76924,33.63436],[35.76859,33.63382],[35.76796,33.63337],[35.76771,33.63324],[35.76748,33.63315],[35.7671,33.63303],[35.76673,33.63298],[35.76617,33.63293],[35.76585,33.63289],[35.76556,33.63282],[35.76525,33.63272]]]}},{"type":"Feature","properties":{"name":"Litani River","name_ar":"نهر الليطاني","class":"river"},"geometry":{"type":"MultiLineString","coordinates":[[[35.76525,33.63272],[35.76488,33.63255],[35.76452,33.63238],[35.76413,33.63217],[35.76376,33.6319],[35.76335,33.63158],[35.76278,33.63114],[35.76228,33.63084],[35.76171,33.6306],[35.76143,33.63053],[35.76124,33.6305],[35.76095,33.6305],[35.76063,33.63052],[35.76012,33.63057],[35.75955,33.63064],[35.75905,33.63066],[35.75865,33.63066],[35.75831,33.63062],[35.75803,33.63056],[35.75777,33.63046],[35.7575,33.63031],[35.75725,33.63015],[35.757,33.62993],[35.75683,33.62974],[35.75672,33.62952],[35.75661,33.6292],[35.75649,33.62858],[35.75639,33.62826],[35.75624,33.62778],[35.75602,33.62725],[35.75563,33.62665],[35.75517,33.62615],[35.75437,33.62547],[35.75423,33.62535],[35.75347,33.62477],[35.75317,33.6245],[35.75294,33.62423],[35.75288,33.62407],[35.75279,33.62386],[35.75269,33.62366],[35.75255,33.62352],[35.7522,33.6232],[35.75155,33.62271],[35.75135,33.62258],[35.75116,33.62251],[35.75085,33.62246],[35.75047,33.62245],[35.74997,33.62244],[35.74943,33.62242],[35.74892,33.62238],[35.74861,33.62231],[35.74821,33.62216],[35.74792,33.62196],[35.7476,33.62172],[35.74734,33.62152],[35.74688,33.62131],[35.74639,33.62112],[35.7451,33.62064],[35.74451,33.62043],[35.74403,33.62022],[35.74383,33.62009],[35.74368,33.61993],[35.74352,33.61968],[35.74338,33.61955],[35.74319,33.61945],[35.743,33.61941],[35.74275,33.61943],[35.74243,33.6194],[35.74219,33.61933],[35.74202,33.6192],[35.7419,33.61904],[35.74176,33.61879],[35.74159,33.61854],[35.74138,33.61833],[35.741,33.61808],[35.74078,33.61792],[35.74059,33.6177],[35.74044,33.61742],[35.74029,33.61701],[35.74021,33.61665],[35.74019,33.61638],[35.74019,33.61612],[35.7401,33.61594],[35.73995,33.61579],[35.73976,33.61561],[35.73957,33.61546],[35.7393,33.61531],[35.739,33.61516],[35.73874,33.61497],[35.7384,33.61468],[35.7381,33.6144],[35.73786,33.61423],[35.73758,33.61405],[35.73722,33.61386],[35.73676,33.61367],[35.73642,33.61353],[35.7362,33.61338],[35.73599,33.61317],[35.73577,33.61285],[35.73545,33.61244],[35.73499,33.61194],[35.73476,33.6117],[35.73436,33.61142],[35.73393,33.61123],[35.73351,33.61119],[35.73314,33.6112],[35.73288,33.61132],[35.73262,33.61162],[35.73245,33.61188]]]}},{"type":"Feature","properties":{"name":"Litani River","name_ar":"نهر الليطاني","class":"river"},"geometry":{"type":"MultiLineString","coordinates":[[[35.81861,33.69008],[35.81849,33.68972],[35.8184,33.6895],[35.81824,33.68924],[35.81806,33.68898],[35.8179,33.68872],[35.81777,33.68849],[35.81767,33.68828],[35.81763,33.68807],[35.81759,33.68749],[35.81757,33.68721],[35.81754,33.68696],[35.81743,33.68656],[35.81728,33.68613],[35.81724,33.68591],[35.81725,33.68579],[35.81729,33.68563],[35.81796,33.68414],[35.81824,33.68338],[35.81829,33.68314],[35.81829,33.68284],[35.81809,33.68168],[35.81805,33.68145],[35.81802,33.68121],[35.81804,33.68097],[35.81808,33.68077],[35.81822,33.68038],[35.81831,33.67997],[35.81832,33.67977],[35.81831,33.67951],[35.81825,33.67913],[35.81815,33.67845],[35.81814,33.67819],[35.81819,33.67786],[35.81831,33.67742],[35.81864,33.67619],[35.81883,33.67539],[35.81901,33.67449],[35.81907,33.67399],[35.81918,33.67304],[35.81921,33.67284],[35.81918,33.67268],[35.81913,33.67249],[35.81869,33.67171],[35.81862,33.67154],[35.81857,33.67135],[35.81859,33.67117],[35.81887,33.67025],[35.81894,33.66992],[35.81895,33.66989],[35.81896,33.66972],[35.81892,33.66956],[35.81882,33.66939],[35.81865,33.66926],[35.81848,33.66916],[35.81813,33.66901],[35.81784,33.66894],[35.81743,33.66891],[35.81674,33.66889],[35.81633,33.6689],[35.81598,33.66885],[35.81574,33.6688],[35.81545,33.66869],[35.81518,33.66853],[35.81467,33.66805],[35.81435,33.66785],[35.81412,33.66776],[35.81392,33.66772],[35.8136,33.66771],[35.81304,33.66771],[35.81275,33.6677],[35.81252,33.66764],[35.8123,33.66756],[35.81214,33.66747],[35.81199,33.66733],[35.81182,33.66712],[35.81154,33.66673]]]}},{"type":"Feature","properties":{"name":null,"name_ar":null,"class":null},"geometry":{"type":"MultiLineString","coordinates":[[[35.69471,33.54732],[35.68808,33.5486],[35.68477,33.54893],[35.68459,33.54947],[35.68471,33.55055],[35.6842,33.55198],[35.68411,33.55969],[35.68508,33.56108],[35.68608,33.56182],[35.68697,33.56299],[35.68715,33.56375],[35.68697,33.56523],[35.68696,33.56636],[35.68666,33.56749],[35.68582,33.56773],[35.68525,33.56722],[35.68441,33.56804],[35.68413,33.57138],[35.68469,33.57345],[35.68597,33.57454],[35.68728,33.57686],[35.68814,33.58019],[35.68896,33.58055],[35.68987,33.58261],[35.69061,33.58505],[35.69189,33.58767],[35.69314,33.58764],[35.69508,33.58922],[35.69557,33.5894],[35.69597,33.59142],[35.69643,33.59204],[35.69578,33.59254],[35.69668,33.59278],[35.69742,33.59373],[35.69699,33.59469],[35.69607,33.59461],[35.69563,33.59526],[35.69671,33.59769],[35.69741,33.59953],[35.6991,33.60022],[35.70342,33.60225],[35.70395,33.6017],[35.7037,33.60064],[35.70241,33.59991],[35.70001,33.59935],[35.69833,33.5983],[35.69806,33.59672],[35.6977,33.59465],[35.69849,33.59353],[35.69771,33.59204],[35.69679,33.59102],[35.69665,33.59002],[35.69732,33.59026],[35.69833,33.59123],[35.6998,33.59196],[35.70056,33.5927],[35.702,33.59325],[35.7024,33.59261],[35.70189,33.5913],[35.70187,33.59039],[35.70058,33.58969],[35.70065,33.58922],[35.70057,33.58794],[35.70144,33.5882],[35.70256,33.58914],[35.70294,33.58982],[35.7032,33.59026],[35.70401,33.58933],[35.70398,33.5884],[35.70512,33.5883],[35.70524,33.58789],[35.70588,33.58799],[35.70742,33.58822],[35.70885,33.58842],[35.70905,33.58822],[35.70711,33.58727],[35.70578,33.58674],[35.70375,33.58649],[35.70283,33.58644],[35.70282,33.58608],[35.70292,33.58582],[35.70345,33.58551],[35.70465,33.58545],[35.70632,33.58548],[35.70624,33.58509],[35.70433,33.5837],[35.70386,33.58377],[35.70383,33.58336],[35.70383,33.58336],[35.70427,33.5832],[35.70451,33.58301],[35.70467,33.58243],[35.70409,33.58192],[35.70359,33.58145],[35.70364,33.58109],[35.70406,33.58088],[35.7052,33.58106],[35.70571,33.58105],[35.70532,33.57998],[35.7047,33.57921],[35.70584,33.57877],[35.70596,33.57829],[35.70647,33.57766],[35.70648,33.5771],[35.70619,33.57651],[35.7049,33.57635],[35.70413,33.57659],[35.70319,33.57647],[35.70168,33.57588],[35.70159,33.57525],[35.7024,33.57393],[35.7034,33.57313],[35.70491,33.57324],[35.70644,33.57368],[35.70667,33.57321],[35.70623,33.57271],[35.70622,33.57176],[35.7054,33.57106],[35.70577,33.57013],[35.70689,33.57017],[35.70709,33.56975],[35.70689,33.56877],[35.7068,33.56825],[35.7063,33.56781],[35.70584,33.5674],[35.70501,33.56565],[35.70493,33.56449],[35.70546,33.56312],[35.70523,33.56216],[35.70437,33.56151],[35.70369,33.56117],[35.70261,33.56134],[35.70298,33.56044],[35.70408,33.55878],[35.70474,33.55833],[35.70434,33.55771],[35.70391,33.55751],[35.70412,33.55643],[35.70391,33.55535],[35.70391,33.55535],[35.70252,33.55497],[35.70165,33.55414],[35.70093,33.55397],[35.6999,33.55358],[35.69816,33.55365],[35.69862,33.55268],[35.69721,33.55166],[35.69635,33.55116],[35.6969,33.55007],[35.69696,33.54925],[35.69597,33.54905],[35.69579,33.54837],[35.69646,33.54814],[35.6964,33.54784],[35.69548,33.54752],[35.69528,33.54739],[35.69517,33.54751],[35.69496,33.54739],[35.69471,33.54732]]]}},{"type":"Feature","properties":{"name":null,"name_ar":null,"class":null},"geometry":{"type":"MultiLineString","coordinates":[[[35.71767,33.61564],[35.71564,33.61573],[35.71333,33.61437],[35.71297,33.61281],[35.71265,33.61241],[35.71074,33.6126],[35.7077,33.61237],[35.70654,33.61061],[35.70581,33.60887],[35.70557,33.60672],[35.70511,33.60494],[35.70446,33.60399],[35.704,33.60336],[35.70342,33.60225]]]}}]}