{"type":"FeatureCollection","features":[{"type":"Feature","properties":{},"geometry":{"type":"MultiPolygon","coordinates":[[[[35.36245,33.16212],[35.35758,33.15602],[35.35606,33.15194],[35.3484,33.14511],[35.34163,33.14379],[35.33779,33.14434],[35.33605,33.14058],[35.32804,33.13589],[35.32435,33.13893],[35.31771,33.13636],[35.31709,33.13167],[35.31052,33.13159],[35.30646,33.13615],[35.29712,33.13412],[35.29465,33.13665],[35.28944,33.13916],[35.28507,33.1409],[35.2753,33.14013],[35.2624,33.14719],[35.26127,33.15425],[35.25619,33.15476],[35.24986,33.1575],[35.24505,33.16242],[35.23731,33.16132],[35.23329,33.16065],[35.23066,33.1615],[35.22839,33.16236],[35.226,33.16301],[35.2245,33.1647],[35.22377,33.16425],[35.22136,33.16513],[35.21925,33.16515],[35.21656,33.16426],[35.21139,33.17117],[35.21023,33.17301],[35.20815,33.17521],[35.20848,33.17547],[35.2066,33.17713],[35.20409,33.17798],[35.20073,33.17835],[35.19112,33.181],[35.19087,33.17937],[35.18933,33.17856],[35.18667,33.17301],[35.18608,33.17153],[35.18441,33.17043],[35.18282,33.16905],[35.18146,33.16786],[35.18126,33.16711],[35.179,33.16564],[35.17899,33.16564],[35.17508,33.16443],[35.17231,33.16422],[35.16928,33.1651],[35.16808,33.16518],[35.16682,33.16473],[35.16549,33.16332],[35.16492,33.16038],[35.1617,33.15559],[35.16059,33.15541],[35.15828,33.1524],[35.15726,33.14889],[35.15669,33.14688],[35.15763,33.14592],[35.15693,33.14462],[35.15435,33.14416],[35.15326,33.14054],[35.1517,33.13664],[35.15119,33.13657],[35.15099,33.13557],[35.15001,33.13427],[35.1493,33.13208],[35.14101,33.12613],[35.13876,33.12626],[35.13747,33.1257],[35.13474,33.12492],[35.1303,33.12134],[35.12547,33.11939],[35.12347,33.11874],[35.12177,33.11778],[35.12046,33.11673],[35.11721,33.11562],[35.1161,33.11572],[35.11509,33.11541],[35.11409,33.1143],[35.11168,33.11248],[35.1107,33.10979],[35.10872,33.10855],[35.10841,33.10728],[35.10604,33.1046],[35.10487,33.10201],[35.10484,33.09976],[35.10338,33.09702],[35.10263,33.09445],[35.10299,33.09417],[35.10767,33.09464],[35.1159,33.09236],[35.12429,33.09297],[35.13492,33.0912],[35.14051,33.09187],[35.1487,33.0909],[35.15133,33.09127],[35.15619,33.09215],[35.15549,33.08684],[35.15746,33.08667],[35.16341,33.08864],[35.16929,33.09061],[35.1728,33.09324],[35.17757,33.09357],[35.18634,33.0901],[35.18978,33.08949],[35.19263,33.08557],[35.19757,33.08618],[35.20698,33.08836],[35.20816,33.08944],[35.20788,33.09166],[35.20795,33.09442],[35.21054,33.09963],[35.21434,33.10052],[35.22758,33.09835],[35.22884,33.09598],[35.23306,33.09411],[35.23924,33.09207],[35.2487,33.0959],[35.25923,33.09709],[35.27014,33.10007],[35.28067,33.10112],[35.28218,33.10234],[35.29233,33.10768],[35.29707,33.1069],[35.30026,33.10339],[35.30036,33.10076],[35.30922,33.10074],[35.3149,33.10422],[35.31735,33.1039],[35.3247,33.0963],[35.32137,33.08822],[35.32562,33.08123],[35.33417,33.07568],[35.33825,33.0687],[35.3431,33.06612],[35.345,33.06346],[35.35257,33.05807],[35.35958,33.05641],[35.37676,33.05471],[35.38169,33.06124],[35.39579,33.0607],[35.43022,33.06611],[35.44665,33.09052],[35.4656,33.09318],[35.4897,33.09215],[35.50308,33.08967],[35.50196,33.11359],[35.50399,33.11576],[35.51911,33.11629],[35.53058,33.13304],[35.52654,33.14086],[35.52992,33.15571],[35.53817,33.17972],[35.54148,33.19775],[35.53639,33.20904],[35.53698,33.21829],[35.53721,33.23182],[35.54606,33.23661],[35.547,33.24626],[35.54691,33.25434],[35.55555,33.25769],[35.5589,33.2655],[35.56436,33.27215],[35.56389,33.27865],[35.56399,33.28487],[35.56786,33.29066],[35.57214,33.28788],[35.57648,33.2873],[35.58521,33.28222],[35.58626,33.27301],[35.58388,33.26774],[35.59357,33.26188],[35.60121,33.25329],[35.61015,33.24979],[35.62456,33.24244],[35.62515,33.2456],[35.62354,33.25241],[35.6208,33.25398],[35.62101,33.25578],[35.62208,33.26376],[35.62024,33.26836],[35.62099,33.27139],[35.64278,33.27976],[35.65906,33.27431],[35.66381,33.2789],[35.67186,33.28412],[35.68462,33.29268],[35.69034,33.29684],[35.69927,33.29816],[35.7097,33.30595],[35.71231,33.31556],[35.71557,33.32544],[35.72095,33.32891],[35.72984,33.32927],[35.74419,33.32467],[35.74988,33.32699],[35.75561,33.32839],[35.76745,33.33203],[35.77686,33.33603],[35.79449,33.3452],[35.80548,33.35412],[35.81408,33.35507],[35.81774,33.35945],[35.81828,33.36563],[35.81555,33.37297],[35.81741,33.3753],[35.81851,33.3801],[35.81841,33.38296],[35.81899,33.385],[35.82,33.38961],[35.82792,33.39866],[35.83622,33.40285],[35.86676,33.41983],[35.87498,33.42227],[35.88653,33.42818],[35.88161,33.44062],[35.88016,33.44659],[35.86584,33.44706],[35.85442,33.44567],[35.85053,33.44741],[35.84444,33.44755],[35.83345,33.44919],[35.81883,33.4556],[35.81245,33.44676],[35.80812,33.44562],[35.79848,33.43783],[35.78335,33.43844],[35.77581,33.43972],[35.76603,33.43786],[35.76497,33.43568],[35.7621,33.43339],[35.76109,33.42748],[35.75404,33.42349],[35.75623,33.41446],[35.75012,33.41418],[35.73854,33.40712],[35.72936,33.3982],[35.73618,33.38963],[35.72819,33.38704],[35.72659,33.38321],[35.73284,33.38307],[35.73734,33.37952],[35.73083,33.37649],[35.73005,33.37264],[35.72355,33.37015],[35.72494,33.36211],[35.71578,33.35858],[35.71896,33.34981],[35.71162,33.34638],[35.70688,33.33157],[35.69882,33.3316],[35.69205,33.32553],[35.68144,33.32853],[35.67229,33.32513],[35.67273,33.31269],[35.66581,33.3069],[35.64062,33.30633],[35.64868,33.31721],[35.64591,33.3181],[35.64219,33.31997],[35.63565,33.33241],[35.64024,33.33742],[35.63412,33.34183],[35.63481,33.34817],[35.63654,33.35642],[35.62914,33.35658],[35.62606,33.3583],[35.6195,33.359],[35.61434,33.36808],[35.60795,33.36905],[35.60238,33.3646],[35.59981,33.35568],[35.59478,33.33603],[35.59725,33.33032],[35.59717,33.32217],[35.57216,33.32214],[35.57193,33.3144],[35.56236,33.31364],[35.56191,33.30384],[35.55309,33.30043],[35.5502,33.30256],[35.54561,33.30321],[35.54209,33.30673],[35.54643,33.32571],[35.54381,33.33184],[35.54114,33.33239],[35.54248,33.34784],[35.54103,33.3511],[35.54112,33.35597],[35.53868,33.35847],[35.53824,33.36073],[35.53351,33.35987],[35.53124,33.36063],[35.52923,33.36198],[35.52687,33.36406],[35.52432,33.36468],[35.52418,33.36609],[35.5235,33.36815],[35.52357,33.37275],[35.52282,33.37569],[35.52286,33.37716],[35.52411,33.37801],[35.52439,33.37908],[35.52332,33.38223],[35.51889,33.38438],[35.51635,33.38443],[35.5137,33.38448],[35.51019,33.38415],[35.5088,33.38215],[35.51044,33.38019],[35.51147,33.37835],[35.51176,33.37591],[35.50919,33.3706],[35.50726,33.37128],[35.5072,33.37108],[35.50718,33.3709],[35.50719,33.3707],[35.50724,33.37052],[35.50732,33.37034],[35.50768,33.37023],[35.50762,33.37004],[35.50759,33.36986],[35.50759,33.36967],[35.50497,33.36632],[35.50486,33.36278],[35.50614,33.36093],[35.50397,33.35117],[35.5041,33.34947],[35.50142,33.34786],[35.50172,33.34562],[35.5049,33.34401],[35.50852,33.34285],[35.51545,33.33811],[35.51094,33.33267],[35.50812,33.33452],[35.50359,33.33343],[35.49956,33.33657],[35.49367,33.34084],[35.4931,33.33944],[35.48741,33.33892],[35.48556,33.33754],[35.48324,33.33678],[35.48105,33.33591],[35.47811,33.33445],[35.47186,33.33332],[35.46685,33.33293],[35.46621,33.32867],[35.46714,33.32694],[35.46181,33.32576],[35.45967,33.32671],[35.4568,33.32768],[35.45394,33.32885],[35.45115,33.3285],[35.44872,33.32804],[35.44593,33.32749],[35.44314,33.32673],[35.44019,33.32678],[35.43946,33.32566],[35.43808,33.3253],[35.43195,33.32351],[35.42823,33.31542],[35.4284,33.31538],[35.42854,33.31533],[35.42863,33.31527],[35.42872,33.31522],[35.42888,33.31508],[35.42901,33.31493],[35.4291,33.31484],[35.42918,33.31474],[35.42931,33.31456],[35.42938,33.31446],[35.42945,33.31437],[35.42949,33.31435],[35.42956,33.31431],[35.42963,33.31429],[35.42974,33.31429],[35.42987,33.31429],[35.43,33.31429],[35.4296,33.31396],[35.43295,33.31044],[35.43724,33.30469],[35.43348,33.29993],[35.43284,33.29441],[35.43685,33.29088],[35.43999,33.2913],[35.44413,33.2895],[35.44676,33.2862],[35.44084,33.28355],[35.43929,33.27785],[35.44223,33.2742],[35.44183,33.26875],[35.44816,33.26593],[35.45805,33.26069],[35.46314,33.26059],[35.47185,33.26318],[35.4757,33.2571],[35.47855,33.25317],[35.47359,33.25203],[35.47484,33.24399],[35.47138,33.23771],[35.47748,33.23247],[35.47884,33.22264],[35.48357,33.2213],[35.48487,33.21492],[35.48149,33.20884],[35.48248,33.19438],[35.47975,33.19078],[35.48512,33.183],[35.48215,33.17698],[35.48452,33.17341],[35.48254,33.17041],[35.48419,33.16769],[35.48244,33.16385],[35.48581,33.15792],[35.48355,33.15651],[35.47781,33.15096],[35.47058,33.15103],[35.46647,33.15941],[35.46401,33.16338],[35.46249,33.16503],[35.46048,33.16629],[35.45823,33.16785],[35.45599,33.16942],[35.45349,33.16897],[35.45373,33.16839],[35.44869,33.17001],[35.44583,33.17245],[35.44332,33.17321],[35.44008,33.17358],[35.43732,33.17384],[35.42963,33.17223],[35.4304,33.17114],[35.427,33.1689],[35.42048,33.16757],[35.41499,33.16579],[35.41067,33.1658],[35.40703,33.16873],[35.40536,33.16832],[35.40245,33.17188],[35.40069,33.17343],[35.39818,33.17419],[35.39229,33.1758],[35.3904,33.17238],[35.3868,33.17208],[35.38415,33.17223],[35.38091,33.1725],[35.37826,33.17265],[35.37561,33.1726],[35.37306,33.17184],[35.37217,33.16993],[35.37056,33.16305],[35.3697,33.1627],[35.36543,33.16159],[35.36245,33.16212]],[[35.46323,33.15919],[35.46418,33.15973],[35.46242,33.15873],[35.46323,33.15919]]]]}}]}